{
 "type": "FeatureCollection",
 "name": "DDO047_survey_footprint",
 "crs": {
  "type": "name",
  "properties": {
   "name": "ICRS"
  }
 },
 "metadata": {
  "host": "DDO047",
  "ra": 115.47916666666667,
  "dec": 16.800555555555555,
  "bands": [
   "g",
   "r"
  ],
  "r_ang_deg": 0.81,
  "distance_Mpc": 8.17,
  "surveys": [
   "DECaLS"
  ]
 },
 "features": [
  {
   "type": "Feature",
   "properties": {
    "host": "DDO047",
    "survey": "DECaLS"
   },
   "geometry": {
    "type": "Polygon",
    "coordinates": [
     [
      [
       114.97109826589593,
       16.375
      ],
      [
       114.97109826589593,
       16.125
      ],
      [
       114.71098265895955,
       16.125
      ],
      [
       114.71098265895955,
       16.375
      ],
      [
       114.61649782923303,
       16.375
      ],
      [
       114.61649782923303,
       16.625
      ],
      [
       114.52173913043475,
       16.625
      ],
      [
       114.52173913043475,
       16.875
      ],
      [
       114.6879535558781,
       16.875
      ],
      [
       114.6879535558781,
       17.125
      ],
      [
       114.6879535558781,
       17.375
      ],
      [
       114.85465116279067,
       17.375
      ],
      [
       114.85465116279067,
       17.625
      ],
      [
       115.11627906976742,
       17.625
      ],
      [
       115.37790697674416,
       17.625
      ],
      [
       115.6395348837209,
       17.625
      ],
      [
       115.90116279069764,
       17.625
      ],
      [
       115.90116279069764,
       17.375
      ],
      [
       115.9941944847605,
       17.375
      ],
      [
       115.9941944847605,
       17.125
      ],
      [
       115.9941944847605,
       16.875
      ],
      [
       115.99419448476056,
       16.875
      ],
      [
       115.99419448476056,
       17.125
      ],
      [
       115.99419448476056,
       17.375
      ],
      [
       116.25544267053704,
       17.375
      ],
      [
       116.25544267053704,
       17.125
      ],
      [
       116.25544267053704,
       16.875
      ],
      [
       116.3478260869565,
       16.875
      ],
      [
       116.3478260869565,
       16.625
      ],
      [
       116.43994211287986,
       16.625
      ],
      [
       116.43994211287986,
       16.375
      ],
      [
       116.27167630057806,
       16.375
      ],
      [
       116.27167630057806,
       16.125
      ],
      [
       116.01156069364163,
       16.125
      ],
      [
       115.84415584415581,
       16.125
      ],
      [
       115.84415584415581,
       15.875
      ],
      [
       115.58441558441558,
       15.875
      ],
      [
       115.32467532467535,
       15.875
      ],
      [
       115.32467532467535,
       16.125
      ],
      [
       115.23121387283237,
       16.125
      ],
      [
       114.97109826589599,
       16.125
      ],
      [
       114.97109826589599,
       16.375
      ],
      [
       114.97109826589593,
       16.375
      ]
     ],
     [
      [
       115.49132947976875,
       16.125
      ],
      [
       115.49132947976881,
       16.125
      ],
      [
       115.49132947976881,
       16.375
      ],
      [
       115.49132947976875,
       16.375
      ],
      [
       115.49132947976875,
       16.125
      ]
     ]
    ]
   }
  }
 ]
}