{
 "type": "FeatureCollection",
 "name": "DDO046_survey_footprint",
 "crs": {
  "type": "name",
  "properties": {
   "name": "ICRS"
  }
 },
 "metadata": {
  "host": "DDO046",
  "ra": 115.3585,
  "dec": 40.1127,
  "bands": [
   "g",
   "r"
  ],
  "r_ang_deg": 0.51,
  "distance_Mpc": 10.38,
  "surveys": [
   "DECaLS"
  ]
 },
 "features": [
  {
   "type": "Feature",
   "properties": {
    "host": "DDO046",
    "survey": "DECaLS"
   },
   "geometry": {
    "type": "Polygon",
    "coordinates": [
     [
      [
       115.0448833034111,
       39.625
      ],
      [
       114.81081081081084,
       39.625
      ],
      [
       114.48648648648646,
       39.625
      ],
      [
       114.48648648648646,
       39.875
      ],
      [
       114.57504520795658,
       39.875
      ],
      [
       114.57504520795658,
       40.125
      ],
      [
       114.66424682395643,
       40.125
      ],
      [
       114.66424682395643,
       40.375
      ],
      [
       114.75409836065575,
       40.375
      ],
      [
       114.75409836065575,
       40.625
      ],
      [
       115.08196721311475,
       40.625
      ],
      [
       115.40983606557376,
       40.625
      ],
      [
       115.73770491803276,
       40.625
      ],
      [
       115.73770491803276,
       40.375
      ],
      [
       115.73770491803282,
       40.375
      ],
      [
       115.73770491803282,
       40.625
      ],
      [
       116.06557377049182,
       40.625
      ],
      [
       116.06557377049182,
       40.375
      ],
      [
       116.29764065335752,
       40.375
      ],
      [
       116.29764065335752,
       40.125
      ],
      [
       116.2025316455696,
       40.125
      ],
      [
       116.2025316455696,
       39.875
      ],
      [
       116.10810810810813,
       39.875
      ],
      [
       116.10810810810813,
       39.625
      ],
      [
       115.7837837837838,
       39.625
      ],
      [
       115.69120287253145,
       39.625
      ],
      [
       115.69120287253145,
       39.375
      ],
      [
       115.36804308797127,
       39.375
      ],
      [
       115.0448833034111,
       39.375
      ],
      [
       115.0448833034111,
       39.625
      ]
     ]
    ]
   }
  }
 ]
}