{
 "type": "FeatureCollection",
 "name": "DDO161_survey_footprint",
 "crs": {
  "type": "name",
  "properties": {
   "name": "ICRS"
  }
 },
 "metadata": {
  "host": "DDO161",
  "ra": 195.8184,
  "dec": -17.4218,
  "bands": [
   "g",
   "i"
  ],
  "r_ang_deg": 1.05,
  "distance_Mpc": 6.03,
  "surveys": [
   "DECaLS"
  ]
 },
 "features": [
  {
   "type": "Feature",
   "properties": {
    "host": "DDO161",
    "survey": "DECaLS"
   },
   "geometry": {
    "type": "Polygon",
    "coordinates": [
     [
      [
       194.978102189781,
       -18.375
      ],
      [
       194.7153284671533,
       -18.375
      ],
      [
       194.7153284671533,
       -18.125
      ],
      [
       194.69387755102036,
       -18.125
      ],
      [
       194.69387755102036,
       -17.875
      ],
      [
       194.67248908296938,
       -17.875
      ],
      [
       194.410480349345,
       -17.875
      ],
      [
       194.410480349345,
       -17.625
      ],
      [
       194.3895348837209,
       -17.625
      ],
      [
       194.3895348837209,
       -17.375
      ],
      [
       194.62989840348337,
       -17.375
      ],
      [
       194.62989840348337,
       -17.125
      ],
      [
       194.62989840348337,
       -16.875
      ],
      [
       194.60869565217388,
       -16.875
      ],
      [
       194.60869565217388,
       -16.625
      ],
      [
       194.8480463096961,
       -16.625
      ],
      [
       194.8480463096961,
       -16.375
      ],
      [
       195.08670520231215,
       -16.375
      ],
      [
       195.08670520231215,
       -16.125
      ],
      [
       195.34682080924858,
       -16.125
      ],
      [
       195.6069364161849,
       -16.125
      ],
      [
       195.60693641618502,
       -16.125
      ],
      [
       195.86705202312135,
       -16.125
      ],
      [
       195.86705202312146,
       -16.125
      ],
      [
       196.12716763005778,
       -16.125
      ],
      [
       196.38728323699422,
       -16.125
      ],
      [
       196.38728323699422,
       -16.375
      ],
      [
       196.41099855282198,
       -16.375
      ],
      [
       196.67149059334292,
       -16.375
      ],
      [
       196.67149059334292,
       -16.625
      ],
      [
       196.695652173913,
       -16.625
      ],
      [
       196.9565217391305,
       -16.625
      ],
      [
       196.9565217391305,
       -16.875
      ],
      [
       196.9811320754717,
       -16.875
      ],
      [
       196.9811320754717,
       -17.125
      ],
      [
       197.24238026124817,
       -17.125
      ],
      [
       197.24238026124817,
       -17.375
      ],
      [
       197.0058139534883,
       -17.375
      ],
      [
       197.0058139534883,
       -17.625
      ],
      [
       197.03056768558952,
       -17.625
      ],
      [
       197.03056768558952,
       -17.875
      ],
      [
       197.05539358600583,
       -17.875
      ],
      [
       197.05539358600583,
       -18.125
      ],
      [
       196.81751824817525,
       -18.125
      ],
      [
       196.81751824817525,
       -18.375
      ],
      [
       196.57894736842104,
       -18.375
      ],
      [
       196.57894736842104,
       -18.625
      ],
      [
       196.31578947368416,
       -18.625
      ],
      [
       196.0526315789474,
       -18.625
      ],
      [
       195.78947368421052,
       -18.625
      ],
      [
       195.52631578947376,
       -18.625
      ],
      [
       195.52631578947376,
       -18.375
      ],
      [
       195.52631578947364,
       -18.375
      ],
      [
       195.52631578947364,
       -18.625
      ],
      [
       195.26315789473688,
       -18.625
      ],
      [
       195.0,
       -18.625
      ],
      [
       195.0,
       -18.375
      ],
      [
       194.978102189781,
       -18.375
      ]
     ],
     [
      [
       195.45851528384287,
       -17.875
      ],
      [
       195.45851528384287,
       -17.625
      ],
      [
       195.45851528384276,
       -17.625
      ],
      [
       195.45851528384276,
       -17.875
      ],
      [
       195.45851528384287,
       -17.875
      ]
     ],
     [
      [
       196.76855895196513,
       -17.875
      ],
      [
       196.76855895196513,
       -17.625
      ],
      [
       196.76855895196502,
       -17.625
      ],
      [
       196.76855895196502,
       -17.875
      ],
      [
       196.76855895196513,
       -17.875
      ]
     ]
    ]
   }
  }
 ]
}