{
 "type": "FeatureCollection",
 "name": "ESO154-023_survey_footprint",
 "crs": {
  "type": "name",
  "properties": {
   "name": "ICRS"
  }
 },
 "metadata": {
  "host": "ESO154-023",
  "ra": 44.2222,
  "dec": -54.5632,
  "bands": [
   "g",
   "r"
  ],
  "r_ang_deg": 1.16,
  "distance_Mpc": 5.86,
  "surveys": [
   "DECaLS"
  ]
 },
 "features": [
  {
   "type": "Feature",
   "properties": {
    "host": "ESO154-023",
    "survey": "DECaLS"
   },
   "geometry": {
    "type": "Polygon",
    "coordinates": [
     [
      [
       43.02439024390242,
       -55.375
      ],
      [
       42.81553398058253,
       -55.375
      ],
      [
       42.37864077669906,
       -55.375
      ],
      [
       42.37864077669906,
       -55.125
      ],
      [
       42.07228915662648,
       -55.125
      ],
      [
       42.07228915662648,
       -54.875
      ],
      [
       42.30215827338128,
       -54.875
      ],
      [
       42.30215827338128,
       -54.625
      ],
      [
       42.0,
       -54.625
      ],
      [
       42.0,
       -54.375
      ],
      [
       42.22748815165875,
       -54.375
      ],
      [
       42.22748815165875,
       -54.125
      ],
      [
       42.35294117647061,
       -54.125
      ],
      [
       42.35294117647061,
       -53.875
      ],
      [
       42.47663551401871,
       -53.875
      ],
      [
       42.47663551401871,
       -53.625
      ],
      [
       42.89719626168221,
       -53.625
      ],
      [
       42.89719626168227,
       -53.625
      ],
      [
       43.116279069767415,
       -53.625
      ],
      [
       43.116279069767415,
       -53.375
      ],
      [
       43.534883720930225,
       -53.375
      ],
      [
       43.953488372093034,
       -53.375
      ],
      [
       44.37209302325584,
       -53.375
      ],
      [
       44.790697674418595,
       -53.375
      ],
      [
       45.209302325581405,
       -53.375
      ],
      [
       45.209302325581405,
       -53.625
      ],
      [
       45.42056074766356,
       -53.625
      ],
      [
       45.841121495327116,
       -53.625
      ],
      [
       45.841121495327116,
       -53.875
      ],
      [
       46.16470588235296,
       -53.875
      ],
      [
       46.16470588235296,
       -54.125
      ],
      [
       46.06635071090045,
       -54.125
      ],
      [
       46.06635071090045,
       -54.375
      ],
      [
       46.28571428571428,
       -54.375
      ],
      [
       46.28571428571428,
       -54.625
      ],
      [
       46.1870503597122,
       -54.625
      ],
      [
       46.1870503597122,
       -54.875
      ],
      [
       45.97590361445782,
       -54.875
      ],
      [
       45.97590361445782,
       -55.125
      ],
      [
       45.873786407767,
       -55.125
      ],
      [
       45.873786407767,
       -55.375
      ],
      [
       45.65853658536582,
       -55.375
      ],
      [
       45.65853658536582,
       -55.625
      ],
      [
       45.21951219512198,
       -55.625
      ],
      [
       44.78048780487802,
       -55.625
      ],
      [
       44.34146341463418,
       -55.625
      ],
      [
       43.90243902439022,
       -55.625
      ],
      [
       43.46341463414632,
       -55.625
      ],
      [
       43.02439024390242,
       -55.625
      ],
      [
       43.02439024390242,
       -55.375
      ]
     ],
     [
      [
       44.89208633093523,
       -54.875
      ],
      [
       44.892086330935285,
       -54.875
      ],
      [
       44.892086330935285,
       -54.625
      ],
      [
       44.89208633093523,
       -54.625
      ],
      [
       44.89208633093523,
       -54.875
      ]
     ]
    ]
   }
  }
 ]
}