{
 "type": "FeatureCollection",
 "name": "ESO252-001_survey_footprint",
 "crs": {
  "type": "name",
  "properties": {
   "name": "ICRS"
  }
 },
 "metadata": {
  "host": "ESO252-001",
  "ra": 74.2456,
  "dec": -42.7996,
  "bands": [
   "g",
   "r"
  ],
  "r_ang_deg": 0.61,
  "distance_Mpc": 6.95,
  "surveys": [
   "DECaLS"
  ]
 },
 "features": [
  {
   "type": "Feature",
   "properties": {
    "host": "ESO252-001",
    "survey": "DECaLS"
   },
   "geometry": {
    "type": "Polygon",
    "coordinates": [
     [
      [
       73.51145038167942,
       -43.375
      ],
      [
       73.23193916349811,
       -43.375
      ],
      [
       73.23193916349811,
       -43.125
      ],
      [
       73.29545454545456,
       -43.125
      ],
      [
       73.29545454545456,
       -42.875
      ],
      [
       73.01886792452831,
       -42.875
      ],
      [
       73.01886792452831,
       -42.625
      ],
      [
       73.08270676691728,
       -42.625
      ],
      [
       73.08270676691728,
       -42.375
      ],
      [
       73.34579439252337,
       -42.375
      ],
      [
       73.34579439252337,
       -42.125
      ],
      [
       73.68224299065423,
       -42.125
      ],
      [
       74.01869158878503,
       -42.125
      ],
      [
       74.35514018691589,
       -42.125
      ],
      [
       74.69158878504675,
       -42.125
      ],
      [
       75.02803738317755,
       -42.125
      ],
      [
       75.02803738317755,
       -42.375
      ],
      [
       75.11278195488723,
       -42.375
      ],
      [
       75.4511278195489,
       -42.375
      ],
      [
       75.4511278195489,
       -42.625
      ],
      [
       75.39622641509436,
       -42.625
      ],
      [
       75.39622641509436,
       -42.875
      ],
      [
       75.34090909090912,
       -42.875
      ],
      [
       75.34090909090912,
       -43.125
      ],
      [
       75.2851711026616,
       -43.125
      ],
      [
       75.2851711026616,
       -43.375
      ],
      [
       74.94296577946767,
       -43.375
      ],
      [
       74.8854961832061,
       -43.375
      ],
      [
       74.8854961832061,
       -43.625
      ],
      [
       74.5419847328244,
       -43.625
      ],
      [
       74.19847328244276,
       -43.625
      ],
      [
       73.85496183206106,
       -43.625
      ],
      [
       73.51145038167942,
       -43.625
      ],
      [
       73.51145038167942,
       -43.375
      ]
     ]
    ]
   }
  }
 ]
}