{
 "type": "FeatureCollection",
 "name": "ESO245-005_survey_footprint",
 "crs": {
  "type": "name",
  "properties": {
   "name": "ICRS"
  }
 },
 "metadata": {
  "host": "ESO245-005",
  "ra": 26.2647,
  "dec": -43.5984,
  "bands": [
   "g",
   "r"
  ],
  "r_ang_deg": 1.32,
  "distance_Mpc": 4.57,
  "surveys": [
   "DECaLS"
  ]
 },
 "features": [
  {
   "type": "Feature",
   "properties": {
    "host": "ESO245-005",
    "survey": "DECaLS"
   },
   "geometry": {
    "type": "Polygon",
    "coordinates": [
     [
      [
       25.26315789473682,
       -44.625
      ],
      [
       25.165048543689295,
       -44.625
      ],
      [
       24.81553398058253,
       -44.625
      ],
      [
       24.81553398058253,
       -44.375
      ],
      [
       24.719535783365586,
       -44.375
      ],
      [
       24.719535783365586,
       -44.125
      ],
      [
       24.576923076923094,
       -44.125
      ],
      [
       24.576923076923094,
       -43.875
      ],
      [
       24.48275862068965,
       -43.875
      ],
      [
       24.48275862068965,
       -43.625
      ],
      [
       24.389312977099223,
       -43.625
      ],
      [
       24.389312977099223,
       -43.375
      ],
      [
       24.638783269962005,
       -43.375
      ],
      [
       24.638783269962005,
       -43.125
      ],
      [
       24.54545454545456,
       -43.125
      ],
      [
       24.54545454545456,
       -42.875
      ],
      [
       24.792452830188665,
       -42.875
      ],
      [
       24.792452830188665,
       -42.625
      ],
      [
       25.1320754716981,
       -42.625
      ],
      [
       25.375939849624046,
       -42.625
      ],
      [
       25.375939849624046,
       -42.375
      ],
      [
       25.714285714285722,
       -42.375
      ],
      [
       26.0526315789474,
       -42.375
      ],
      [
       26.390977443609017,
       -42.375
      ],
      [
       26.729323308270693,
       -42.375
      ],
      [
       27.067669172932312,
       -42.375
      ],
      [
       27.40601503759399,
       -42.375
      ],
      [
       27.40601503759399,
       -42.625
      ],
      [
       27.509433962264154,
       -42.625
      ],
      [
       27.509433962264154,
       -42.875
      ],
      [
       27.613636363636374,
       -42.875
      ],
      [
       27.95454545454544,
       -42.875
      ],
      [
       27.95454545454544,
       -43.125
      ],
      [
       28.06083650190112,
       -43.125
      ],
      [
       28.06083650190112,
       -43.375
      ],
      [
       28.167938931297726,
       -43.375
      ],
      [
       28.167938931297726,
       -43.625
      ],
      [
       27.931034482758605,
       -43.625
      ],
      [
       27.931034482758605,
       -43.875
      ],
      [
       28.038461538461547,
       -43.875
      ],
      [
       28.038461538461547,
       -44.125
      ],
      [
       27.85299806576404,
       -44.125
      ],
      [
       27.85299806576404,
       -44.375
      ],
      [
       27.611650485436883,
       -44.375
      ],
      [
       27.611650485436883,
       -44.625
      ],
      [
       27.262135922330117,
       -44.625
      ],
      [
       27.017543859649095,
       -44.625
      ],
      [
       27.017543859649095,
       -44.875
      ],
      [
       26.666666666666686,
       -44.875
      ],
      [
       26.31578947368422,
       -44.875
      ],
      [
       25.964912280701753,
       -44.875
      ],
      [
       25.614035087719287,
       -44.875
      ],
      [
       25.26315789473682,
       -44.875
      ],
      [
       25.26315789473682,
       -44.625
      ]
     ]
    ]
   }
  }
 ]
}