{
 "type": "FeatureCollection",
 "name": "ESO572-034_survey_footprint",
 "crs": {
  "type": "name",
  "properties": {
   "name": "ICRS"
  }
 },
 "metadata": {
  "host": "ESO572-034",
  "ra": 179.7434,
  "dec": -19.0279,
  "bands": [
   "g",
   "r"
  ],
  "r_ang_deg": 0.59,
  "distance_Mpc": 10.52,
  "surveys": [
   "DECaLS"
  ]
 },
 "features": [
  {
   "type": "Feature",
   "properties": {
    "host": "ESO572-034",
    "survey": "DECaLS"
   },
   "geometry": {
    "type": "Polygon",
    "coordinates": [
     [
      [
       178.94428152492674,
       -19.125
      ],
      [
       178.94428152492674,
       -18.875
      ],
      [
       178.94582723279655,
       -18.875
      ],
      [
       178.94582723279655,
       -18.625
      ],
      [
       179.2093704245974,
       -18.625
      ],
      [
       179.21052631578948,
       -18.625
      ],
      [
       179.21052631578948,
       -18.375
      ],
      [
       179.47368421052624,
       -18.375
      ],
      [
       179.47368421052624,
       -18.625
      ],
      [
       179.47368421052636,
       -18.625
      ],
      [
       179.47368421052636,
       -18.375
      ],
      [
       179.73684210526312,
       -18.375
      ],
      [
       180.0,
       -18.375
      ],
      [
       180.26315789473688,
       -18.375
      ],
      [
       180.26315789473688,
       -18.625
      ],
      [
       180.26354319180086,
       -18.625
      ],
      [
       180.52708638360173,
       -18.625
      ],
      [
       180.52708638360173,
       -18.875
      ],
      [
       180.52785923753663,
       -18.875
      ],
      [
       180.52785923753663,
       -19.125
      ],
      [
       180.52863436123346,
       -19.125
      ],
      [
       180.52863436123346,
       -19.375
      ],
      [
       180.26470588235293,
       -19.375
      ],
      [
       180.26470588235293,
       -19.625
      ],
      [
       180.0,
       -19.625
      ],
      [
       179.73529411764707,
       -19.625
      ],
      [
       179.47058823529414,
       -19.625
      ],
      [
       179.20588235294122,
       -19.625
      ],
      [
       179.20588235294122,
       -19.375
      ],
      [
       178.94273127753308,
       -19.375
      ],
      [
       178.94273127753308,
       -19.125
      ],
      [
       178.94428152492674,
       -19.125
      ]
     ],
     [
      [
       179.73568281938321,
       -19.125
      ],
      [
       179.73568281938321,
       -19.375
      ],
      [
       179.73568281938333,
       -19.375
      ],
      [
       179.73568281938333,
       -19.125
      ],
      [
       179.73568281938321,
       -19.125
      ]
     ],
     [
      [
       180.26431718061679,
       -19.375
      ],
      [
       180.26431718061679,
       -19.125
      ],
      [
       180.26431718061667,
       -19.125
      ],
      [
       180.26431718061667,
       -19.375
      ],
      [
       180.26431718061679,
       -19.375
      ]
     ]
    ]
   }
  }
 ]
}