{
 "type": "FeatureCollection",
 "name": "IC1959_survey_footprint",
 "crs": {
  "type": "name",
  "properties": {
   "name": "ICRS"
  }
 },
 "metadata": {
  "host": "IC1959",
  "ra": 53.3017,
  "dec": -50.4135,
  "bands": [
   "g",
   "r"
  ],
  "r_ang_deg": 1.0,
  "distance_Mpc": 6.19,
  "surveys": [
   "DECaLS"
  ]
 },
 "features": [
  {
   "type": "Feature",
   "properties": {
    "host": "IC1959",
    "survey": "DECaLS"
   },
   "geometry": {
    "type": "Polygon",
    "coordinates": [
     [
      [
       51.991247264770266,
       -50.625
      ],
      [
       51.6521739130435,
       -50.625
      ],
      [
       51.6521739130435,
       -50.375
      ],
      [
       51.81818181818181,
       -50.375
      ],
      [
       51.81818181818181,
       -50.125
      ],
      [
       51.87096774193549,
       -50.125
      ],
      [
       51.87096774193549,
       -49.875
      ],
      [
       52.03426124197,
       -49.875
      ],
      [
       52.03426124197,
       -49.625
      ],
      [
       52.419700214132774,
       -49.625
      ],
      [
       52.57995735607676,
       -49.625
      ],
      [
       52.57995735607676,
       -49.375
      ],
      [
       52.96375266524518,
       -49.375
      ],
      [
       53.34754797441366,
       -49.375
      ],
      [
       53.73134328358208,
       -49.375
      ],
      [
       54.115138592750554,
       -49.375
      ],
      [
       54.115138592750554,
       -49.625
      ],
      [
       54.346895074946474,
       -49.625
      ],
      [
       54.346895074946474,
       -49.875
      ],
      [
       54.580645161290306,
       -49.875
      ],
      [
       54.580645161290306,
       -50.125
      ],
      [
       54.93506493506493,
       -50.125
      ],
      [
       54.93506493506493,
       -50.375
      ],
      [
       54.782608695652186,
       -50.375
      ],
      [
       54.782608695652186,
       -50.625
      ],
      [
       54.748358862144414,
       -50.625
      ],
      [
       54.748358862144414,
       -50.875
      ],
      [
       54.5934065934066,
       -50.875
      ],
      [
       54.5934065934066,
       -51.125
      ],
      [
       54.19780219780222,
       -51.125
      ],
      [
       54.15929203539821,
       -51.125
      ],
      [
       54.15929203539821,
       -51.375
      ],
      [
       53.76106194690266,
       -51.375
      ],
      [
       53.362831858407105,
       -51.375
      ],
      [
       53.36283185840705,
       -51.375
      ],
      [
       52.964601769911496,
       -51.375
      ],
      [
       52.566371681415944,
       -51.375
      ],
      [
       52.566371681415944,
       -51.125
      ],
      [
       52.219780219780205,
       -51.125
      ],
      [
       52.219780219780205,
       -50.875
      ],
      [
       51.991247264770266,
       -50.875
      ],
      [
       51.991247264770266,
       -50.625
      ]
     ]
    ]
   }
  }
 ]
}