{
 "type": "FeatureCollection",
 "name": "IC5052_survey_footprint",
 "crs": {
  "type": "name",
  "properties": {
   "name": "ICRS"
  }
 },
 "metadata": {
  "host": "IC5052",
  "ra": 313.023208,
  "dec": -69.201639,
  "bands": [
   "g",
   "r"
  ],
  "r_ang_deg": 1.42,
  "distance_Mpc": 5.5,
  "surveys": [
   "DECaLS"
  ]
 },
 "features": [
  {
   "type": "Feature",
   "properties": {
    "host": "IC5052",
    "survey": "DECaLS"
   },
   "geometry": {
    "type": "Polygon",
    "coordinates": [
     [
      [
       309.91935483870975,
       -69.875
      ],
      [
       309.800796812749,
       -69.875
      ],
      [
       309.08366533864546,
       -69.875
      ],
      [
       309.08366533864546,
       -69.625
      ],
      [
       308.9763779527559,
       -69.625
      ],
      [
       308.9763779527559,
       -69.375
      ],
      [
       308.8715953307393,
       -69.375
      ],
      [
       308.8715953307393,
       -69.125
      ],
      [
       309.46153846153845,
       -69.125
      ],
      [
       309.46153846153845,
       -68.875
      ],
      [
       309.3536121673003,
       -68.875
      ],
      [
       309.3536121673003,
       -68.625
      ],
      [
       309.2481203007519,
       -68.625
      ],
      [
       309.2481203007519,
       -68.375
      ],
      [
       309.814126394052,
       -68.375
      ],
      [
       309.814126394052,
       -68.125
      ],
      [
       310.4832713754647,
       -68.125
      ],
      [
       311.02941176470586,
       -68.125
      ],
      [
       311.02941176470586,
       -67.875
      ],
      [
       311.6911764705883,
       -67.875
      ],
      [
       312.3529411764705,
       -67.875
      ],
      [
       312.3529411764705,
       -68.125
      ],
      [
       312.3529411764706,
       -68.125
      ],
      [
       312.3529411764706,
       -67.875
      ],
      [
       313.0147058823529,
       -67.875
      ],
      [
       313.67647058823536,
       -67.875
      ],
      [
       314.33823529411757,
       -67.875
      ],
      [
       314.33823529411757,
       -68.125
      ],
      [
       314.3382352941177,
       -68.125
      ],
      [
       314.3382352941177,
       -67.875
      ],
      [
       315.0,
       -67.875
      ],
      [
       315.0,
       -68.125
      ],
      [
       315.1672862453531,
       -68.125
      ],
      [
       315.83643122676585,
       -68.125
      ],
      [
       315.83643122676585,
       -68.375
      ],
      [
       316.01503759398497,
       -68.375
      ],
      [
       316.6917293233082,
       -68.375
      ],
      [
       316.6917293233082,
       -68.625
      ],
      [
       316.8821292775665,
       -68.625
      ],
      [
       316.8821292775665,
       -68.875
      ],
      [
       317.0769230769231,
       -68.875
      ],
      [
       317.0769230769231,
       -69.125
      ],
      [
       316.5758754863813,
       -69.125
      ],
      [
       316.5758754863813,
       -69.375
      ],
      [
       316.77165354330714,
       -69.375
      ],
      [
       316.77165354330714,
       -69.625
      ],
      [
       316.97211155378477,
       -69.625
      ],
      [
       316.97211155378477,
       -69.875
      ],
      [
       316.45161290322585,
       -69.875
      ],
      [
       316.45161290322585,
       -70.125
      ],
      [
       315.9183673469388,
       -70.125
      ],
      [
       315.9183673469388,
       -70.375
      ],
      [
       315.1836734693877,
       -70.375
      ],
      [
       314.62809917355366,
       -70.375
      ],
      [
       314.62809917355366,
       -70.625
      ],
      [
       313.8842975206612,
       -70.625
      ],
      [
       313.14049586776855,
       -70.625
      ],
      [
       312.3966942148761,
       -70.625
      ],
      [
       311.65289256198344,
       -70.625
      ],
      [
       310.909090909091,
       -70.625
      ],
      [
       310.909090909091,
       -70.375
      ],
      [
       310.7755102040817,
       -70.375
      ],
      [
       310.0408163265306,
       -70.375
      ],
      [
       310.0408163265306,
       -70.125
      ],
      [
       309.91935483870975,
       -70.125
      ],
      [
       309.91935483870975,
       -69.875
      ]
     ],
     [
      [
       313.15985130111517,
       -68.375
      ],
      [
       313.1598513011153,
       -68.375
      ],
      [
       313.1598513011153,
       -68.125
      ],
      [
       313.15985130111517,
       -68.125
      ],
      [
       313.15985130111517,
       -68.375
      ]
     ],
     [
      [
       313.07392996108945,
       -69.375
      ],
      [
       313.07392996108956,
       -69.375
      ],
      [
       313.07392996108956,
       -69.125
      ],
      [
       313.07392996108945,
       -69.125
      ],
      [
       313.07392996108945,
       -69.375
      ]
     ],
     [
      [
       311.6731517509728,
       -69.375
      ],
      [
       311.6731517509728,
       -69.125
      ],
      [
       311.6731517509727,
       -69.125
      ],
      [
       311.6731517509727,
       -69.375
      ],
      [
       311.6731517509728,
       -69.375
      ]
     ],
     [
      [
       311.51020408163276,
       -70.375
      ],
      [
       311.51020408163276,
       -70.125
      ],
      [
       311.51020408163265,
       -70.125
      ],
      [
       311.51020408163265,
       -70.375
      ],
      [
       311.51020408163276,
       -70.375
      ]
     ],
     [
      [
       309.5719844357976,
       -69.125
      ],
      [
       309.5719844357976,
       -69.375
      ],
      [
       309.57198443579773,
       -69.375
      ],
      [
       309.57198443579773,
       -69.125
      ],
      [
       309.5719844357976,
       -69.125
      ]
     ],
     [
      [
       309.6850393700788,
       -69.375
      ],
      [
       309.6850393700787,
       -69.375
      ],
      [
       309.6850393700787,
       -69.625
      ],
      [
       309.6850393700788,
       -69.625
      ],
      [
       309.6850393700788,
       -69.375
      ]
     ],
     [
      [
       310.3937007874016,
       -69.625
      ],
      [
       310.3937007874016,
       -69.375
      ],
      [
       310.3937007874015,
       -69.375
      ],
      [
       310.3937007874015,
       -69.625
      ],
      [
       310.3937007874016,
       -69.625
      ]
     ],
     [
      [
       311.9521912350597,
       -69.875
      ],
      [
       311.9521912350598,
       -69.875
      ],
      [
       311.9521912350598,
       -69.625
      ],
      [
       311.9521912350597,
       -69.625
      ],
      [
       311.9521912350597,
       -69.875
      ]
     ],
     [
      [
       314.64566929133866,
       -69.625
      ],
      [
       314.64566929133866,
       -69.375
      ],
      [
       314.64566929133855,
       -69.375
      ],
      [
       314.64566929133855,
       -69.625
      ],
      [
       314.64566929133866,
       -69.625
      ]
     ],
     [
      [
       314.44897959183663,
       -70.375
      ],
      [
       314.44897959183675,
       -70.375
      ],
      [
       314.44897959183675,
       -70.125
      ],
      [
       314.44897959183663,
       -70.125
      ],
      [
       314.44897959183663,
       -70.375
      ]
     ],
     [
      [
       313.3864541832669,
       -69.875
      ],
      [
       313.386454183267,
       -69.875
      ],
      [
       313.386454183267,
       -69.625
      ],
      [
       313.3864541832669,
       -69.625
      ],
      [
       313.3864541832669,
       -69.875
      ]
     ],
     [
      [
       313.71428571428567,
       -70.125
      ],
      [
       313.71428571428567,
       -70.375
      ],
      [
       313.7142857142858,
       -70.375
      ],
      [
       313.7142857142858,
       -70.125
      ],
      [
       313.71428571428567,
       -70.125
      ]
     ],
     [
      [
       315.1750972762645,
       -69.125
      ],
      [
       315.1750972762645,
       -69.375
      ],
      [
       315.17509727626464,
       -69.375
      ],
      [
       315.17509727626464,
       -69.125
      ],
      [
       315.1750972762645,
       -69.125
      ]
     ],
     [
      [
       315.35433070866134,
       -69.625
      ],
      [
       315.35433070866145,
       -69.625
      ],
      [
       315.35433070866145,
       -69.375
      ],
      [
       315.35433070866134,
       -69.375
      ],
      [
       315.35433070866134,
       -69.625
      ]
     ]
    ]
   }
  }
 ]
}