{
 "type": "FeatureCollection",
 "name": "IC5332_survey_footprint",
 "crs": {
  "type": "name",
  "properties": {
   "name": "ICRS"
  }
 },
 "metadata": {
  "host": "IC5332",
  "ra": 353.6145,
  "dec": -36.1002,
  "bands": [
   "g",
   "r"
  ],
  "r_ang_deg": 1.25,
  "distance_Mpc": 9.01,
  "surveys": [
   "DECaLS"
  ]
 },
 "features": [
  {
   "type": "Feature",
   "properties": {
    "host": "IC5332",
    "survey": "DECaLS"
   },
   "geometry": {
    "type": "Polygon",
    "coordinates": [
     [
      [
       352.2413793103449,
       -36.375
      ],
      [
       352.2680412371134,
       -36.375
      ],
      [
       352.2680412371134,
       -36.125
      ],
      [
       352.29452054794524,
       -36.125
      ],
      [
       352.29452054794524,
       -35.875
      ],
      [
       352.320819112628,
       -35.875
      ],
      [
       352.320819112628,
       -35.625
      ],
      [
       352.3469387755101,
       -35.625
      ],
      [
       352.3469387755101,
       -35.375
      ],
      [
       352.65306122448976,
       -35.375
      ],
      [
       352.6530612244899,
       -35.375
      ],
      [
       352.66553480475386,
       -35.375
      ],
      [
       352.66553480475386,
       -35.125
      ],
      [
       352.9711375212223,
       -35.125
      ],
      [
       352.9711375212223,
       -35.375
      ],
      [
       352.97113752122243,
       -35.375
      ],
      [
       352.97113752122243,
       -35.125
      ],
      [
       353.276740237691,
       -35.125
      ],
      [
       353.58234295415957,
       -35.125
      ],
      [
       353.58234295415957,
       -35.375
      ],
      [
       353.5823429541597,
       -35.375
      ],
      [
       353.5823429541597,
       -35.125
      ],
      [
       353.88794567062814,
       -35.125
      ],
      [
       354.1935483870968,
       -35.125
      ],
      [
       354.4991511035653,
       -35.125
      ],
      [
       354.4991511035653,
       -35.375
      ],
      [
       354.795918367347,
       -35.375
      ],
      [
       354.795918367347,
       -35.625
      ],
      [
       354.7781569965871,
       -35.625
      ],
      [
       354.7781569965871,
       -35.875
      ],
      [
       354.7602739726027,
       -35.875
      ],
      [
       354.7602739726027,
       -36.125
      ],
      [
       355.0515463917526,
       -36.125
      ],
      [
       355.0515463917526,
       -36.375
      ],
      [
       354.74226804123714,
       -36.375
      ],
      [
       354.7241379310344,
       -36.375
      ],
      [
       354.7241379310344,
       -36.625
      ],
      [
       354.7058823529412,
       -36.625
      ],
      [
       354.7058823529412,
       -36.875
      ],
      [
       354.39446366782,
       -36.875
      ],
      [
       354.375,
       -36.875
      ],
      [
       354.375,
       -37.125
      ],
      [
       354.0625,
       -37.125
      ],
      [
       353.75,
       -37.125
      ],
      [
       353.4375,
       -37.125
      ],
      [
       353.125,
       -37.125
      ],
      [
       352.8125,
       -37.125
      ],
      [
       352.8125,
       -36.875
      ],
      [
       352.52595155709344,
       -36.875
      ],
      [
       352.52595155709344,
       -36.625
      ],
      [
       352.2413793103449,
       -36.625
      ],
      [
       352.2413793103449,
       -36.375
      ]
     ],
     [
      [
       352.6027397260275,
       -36.125
      ],
      [
       352.6027397260275,
       -35.875
      ],
      [
       352.6027397260274,
       -35.875
      ],
      [
       352.6027397260274,
       -36.125
      ],
      [
       352.6027397260275,
       -36.125
      ]
     ],
     [
      [
       352.62798634812293,
       -35.625
      ],
      [
       352.6279863481228,
       -35.625
      ],
      [
       352.6279863481228,
       -35.875
      ],
      [
       352.62798634812293,
       -35.875
      ],
      [
       352.62798634812293,
       -35.625
      ]
     ],
     [
      [
       352.93515358361776,
       -35.875
      ],
      [
       352.93515358361776,
       -35.625
      ],
      [
       352.93515358361765,
       -35.625
      ],
      [
       352.93515358361765,
       -35.875
      ],
      [
       352.93515358361776,
       -35.875
      ]
     ],
     [
      [
       352.55172413793093,
       -36.625
      ],
      [
       352.55172413793105,
       -36.625
      ],
      [
       352.55172413793105,
       -36.375
      ],
      [
       352.55172413793093,
       -36.375
      ],
      [
       352.55172413793093,
       -36.625
      ]
     ],
     [
      [
       352.91095890410963,
       -36.125
      ],
      [
       352.91095890410963,
       -35.875
      ],
      [
       352.9109589041095,
       -35.875
      ],
      [
       352.9109589041095,
       -36.125
      ],
      [
       352.91095890410963,
       -36.125
      ]
     ],
     [
      [
       354.41379310344837,
       -36.625
      ],
      [
       354.41379310344837,
       -36.375
      ],
      [
       354.41379310344826,
       -36.375
      ],
      [
       354.41379310344826,
       -36.625
      ],
      [
       354.41379310344837,
       -36.625
      ]
     ],
     [
      [
       353.85665529010237,
       -35.875
      ],
      [
       353.8566552901025,
       -35.875
      ],
      [
       353.8566552901025,
       -35.625
      ],
      [
       353.85665529010237,
       -35.625
      ],
      [
       353.85665529010237,
       -35.875
      ]
     ],
     [
      [
       353.83561643835606,
       -36.125
      ],
      [
       353.83561643835617,
       -36.125
      ],
      [
       353.83561643835617,
       -35.875
      ],
      [
       353.83561643835606,
       -35.875
      ],
      [
       353.83561643835606,
       -36.125
      ]
     ],
     [
      [
       354.1638225255972,
       -35.625
      ],
      [
       354.1638225255972,
       -35.875
      ],
      [
       354.1638225255973,
       -35.875
      ],
      [
       354.1638225255973,
       -35.625
      ],
      [
       354.1638225255972,
       -35.625
      ]
     ]
    ]
   }
  }
 ]
}