{
 "type": "FeatureCollection",
 "name": "NGC0855_survey_footprint",
 "crs": {
  "type": "name",
  "properties": {
   "name": "ICRS"
  }
 },
 "metadata": {
  "host": "NGC0855",
  "ra": 33.51541666666667,
  "dec": 27.877222222222223,
  "bands": [
   "g",
   "r"
  ],
  "r_ang_deg": 0.9,
  "distance_Mpc": 8.83,
  "surveys": [
   "DECaLS"
  ]
 },
 "features": [
  {
   "type": "Feature",
   "properties": {
    "host": "NGC0855",
    "survey": "DECaLS"
   },
   "geometry": {
    "type": "Polygon",
    "coordinates": [
     [
      [
       32.57410296411854,
       27.125
      ],
      [
       32.293291731669285,
       27.125
      ],
      [
       32.293291731669285,
       27.375
      ],
      [
       32.34375,
       27.375
      ],
      [
       32.34375,
       27.625
      ],
      [
       32.16300940438873,
       27.625
      ],
      [
       32.16300940438873,
       27.875
      ],
      [
       32.21350078492935,
       27.875
      ],
      [
       32.21350078492935,
       28.125
      ],
      [
       32.314960629921245,
       28.125
      ],
      [
       32.314960629921245,
       28.375
      ],
      [
       32.36593059936911,
       28.375
      ],
      [
       32.36593059936911,
       28.625
      ],
      [
       32.64984227129338,
       28.625
      ],
      [
       32.75316455696202,
       28.625
      ],
      [
       32.75316455696202,
       28.875
      ],
      [
       33.03797468354429,
       28.875
      ],
      [
       33.322784810126564,
       28.875
      ],
      [
       33.607594936708836,
       28.875
      ],
      [
       33.607594936708836,
       28.625
      ],
      [
       33.60759493670889,
       28.625
      ],
      [
       33.60759493670889,
       28.875
      ],
      [
       33.89240506329111,
       28.875
      ],
      [
       33.89240506329111,
       28.625
      ],
      [
       33.892405063291164,
       28.625
      ],
      [
       33.892405063291164,
       28.875
      ],
      [
       34.177215189873436,
       28.875
      ],
      [
       34.46202531645571,
       28.875
      ],
      [
       34.46202531645571,
       28.625
      ],
      [
       34.6372239747634,
       28.625
      ],
      [
       34.6372239747634,
       28.375
      ],
      [
       34.866141732283495,
       28.375
      ],
      [
       34.866141732283495,
       28.125
      ],
      [
       34.75667189952901,
       28.125
      ],
      [
       34.75667189952901,
       27.875
      ],
      [
       34.70219435736675,
       27.875
      ],
      [
       34.70219435736675,
       27.625
      ],
      [
       34.875,
       27.625
      ],
      [
       34.875,
       27.375
      ],
      [
       34.59375,
       27.375
      ],
      [
       34.53978159126365,
       27.375
      ],
      [
       34.53978159126365,
       27.125
      ],
      [
       34.43234836702953,
       27.125
      ],
      [
       34.43234836702953,
       26.875
      ],
      [
       34.152410575427666,
       26.875
      ],
      [
       33.8724727838258,
       26.875
      ],
      [
       33.59253499222393,
       26.875
      ],
      [
       33.312597200622065,
       26.875
      ],
      [
       33.0326594090202,
       26.875
      ],
      [
       32.75272161741833,
       26.875
      ],
      [
       32.75272161741833,
       27.125
      ],
      [
       32.57410296411854,
       27.125
      ]
     ],
     [
      [
       33.97815912636503,
       27.375
      ],
      [
       33.97815912636503,
       27.125
      ],
      [
       33.978159126365085,
       27.125
      ],
      [
       33.978159126365085,
       27.375
      ],
      [
       33.97815912636503,
       27.375
      ]
     ]
    ]
   }
  }
 ]
}