{
 "type": "FeatureCollection",
 "name": "NGC0784_survey_footprint",
 "crs": {
  "type": "name",
  "properties": {
   "name": "ICRS"
  }
 },
 "metadata": {
  "host": "NGC0784",
  "ra": 30.3202,
  "dec": 28.836,
  "bands": [
   "g",
   "r"
  ],
  "r_ang_deg": 1.31,
  "distance_Mpc": 5.37,
  "surveys": [
   "DECaLS"
  ]
 },
 "features": [
  {
   "type": "Feature",
   "properties": {
    "host": "NGC0784",
    "survey": "DECaLS"
   },
   "geometry": {
    "type": "Polygon",
    "coordinates": [
     [
      [
       28.82260596546314,
       27.875
      ],
      [
       28.82260596546314,
       28.125
      ],
      [
       28.62992125984249,
       28.125
      ],
      [
       28.62992125984249,
       28.375
      ],
      [
       28.67507886435328,
       28.375
      ],
      [
       28.67507886435328,
       28.625
      ],
      [
       28.765822784810098,
       28.625
      ],
      [
       28.765822784810098,
       28.875
      ],
      [
       28.52614896988905,
       28.875
      ],
      [
       28.52614896988905,
       29.125
      ],
      [
       28.61685214626391,
       29.125
      ],
      [
       28.61685214626391,
       29.375
      ],
      [
       28.66242038216558,
       29.375
      ],
      [
       28.66242038216558,
       29.625
      ],
      [
       28.94904458598728,
       29.625
      ],
      [
       28.94904458598728,
       29.375
      ],
      [
       29.189189189189165,
       29.375
      ],
      [
       29.235668789808926,
       29.375
      ],
      [
       29.235668789808926,
       29.625
      ],
      [
       29.041533546325866,
       29.625
      ],
      [
       29.041533546325866,
       29.875
      ],
      [
       29.088000000000022,
       29.875
      ],
      [
       29.088000000000022,
       30.125
      ],
      [
       29.375999999999976,
       30.125
      ],
      [
       29.470304975922943,
       30.125
      ],
      [
       29.470304975922943,
       30.375
      ],
      [
       29.75922953451044,
       30.375
      ],
      [
       30.048154093097935,
       30.375
      ],
      [
       30.337078651685374,
       30.375
      ],
      [
       30.62600321027287,
       30.375
      ],
      [
       30.914927768860366,
       30.375
      ],
      [
       31.203852327447862,
       30.375
      ],
      [
       31.203852327447862,
       30.125
      ],
      [
       31.391999999999996,
       30.125
      ],
      [
       31.391999999999996,
       29.875
      ],
      [
       31.629392971246034,
       29.875
      ],
      [
       31.629392971246034,
       29.625
      ],
      [
       31.81528662420385,
       29.625
      ],
      [
       31.81528662420385,
       29.375
      ],
      [
       32.050874403815556,
       29.375
      ],
      [
       32.050874403815556,
       29.125
      ],
      [
       31.949286846275754,
       29.125
      ],
      [
       31.949286846275754,
       28.875
      ],
      [
       31.898734177215204,
       28.875
      ],
      [
       31.898734177215204,
       28.625
      ],
      [
       32.08201892744478,
       28.625
      ],
      [
       32.08201892744478,
       28.375
      ],
      [
       32.03149606299212,
       28.375
      ],
      [
       32.03149606299212,
       28.125
      ],
      [
       31.748031496062993,
       28.125
      ],
      [
       31.64835164835165,
       28.125
      ],
      [
       31.64835164835165,
       27.875
      ],
      [
       31.598746081504714,
       27.875
      ],
      [
       31.598746081504714,
       27.625
      ],
      [
       31.316614420062706,
       27.625
      ],
      [
       31.21875,
       27.625
      ],
      [
       31.21875,
       27.375
      ],
      [
       30.9375,
       27.375
      ],
      [
       30.65625,
       27.375
      ],
      [
       30.375,
       27.375
      ],
      [
       30.375,
       27.625
      ],
      [
       30.188087774294672,
       27.625
      ],
      [
       30.09375,
       27.625
      ],
      [
       30.09375,
       27.375
      ],
      [
       29.8125,
       27.375
      ],
      [
       29.53125,
       27.375
      ],
      [
       29.53125,
       27.625
      ],
      [
       29.341692789968647,
       27.625
      ],
      [
       29.05956112852664,
       27.625
      ],
      [
       29.05956112852664,
       27.875
      ],
      [
       28.82260596546314,
       27.875
      ]
     ],
     [
      [
       30.81600000000003,
       29.875
      ],
      [
       30.81600000000003,
       30.125
      ],
      [
       30.815999999999974,
       30.125
      ],
      [
       30.815999999999974,
       29.875
      ],
      [
       30.81600000000003,
       29.875
      ]
     ],
     [
      [
       31.3418530351438,
       29.625
      ],
      [
       31.3418530351438,
       29.875
      ],
      [
       31.341853035143743,
       29.875
      ],
      [
       31.341853035143743,
       29.625
      ],
      [
       31.3418530351438,
       29.625
      ]
     ]
    ]
   }
  }
 ]
}