{
 "type": "FeatureCollection",
 "name": "NGC0045_survey_footprint",
 "crs": {
  "type": "name",
  "properties": {
   "name": "ICRS"
  }
 },
 "metadata": {
  "host": "NGC0045",
  "ra": 3.516,
  "dec": -23.1801,
  "bands": [
   "g",
   "r"
  ],
  "r_ang_deg": 1.49,
  "distance_Mpc": 6.64,
  "surveys": [
   "DECaLS"
  ]
 },
 "features": [
  {
   "type": "Feature",
   "properties": {
    "host": "NGC0045",
    "survey": "DECaLS"
   },
   "geometry": {
    "type": "Polygon",
    "coordinates": [
     [
      [
       1.909090909090935,
       -23.875
      ],
      [
       1.909090909090935,
       -23.625
      ],
      [
       1.9062027231467482,
       -23.625
      ],
      [
       1.9062027231467482,
       -23.375
      ],
      [
       1.9004524886877903,
       -23.375
      ],
      [
       1.9004524886877903,
       -23.125
      ],
      [
       1.8975903614457934,
       -23.125
      ],
      [
       1.8975903614457934,
       -22.875
      ],
      [
       1.8947368421052602,
       -22.875
      ],
      [
       1.8947368421052602,
       -22.625
      ],
      [
       2.16216216216219,
       -22.625
      ],
      [
       2.16216216216219,
       -22.375
      ],
      [
       2.158920539730161,
       -22.375
      ],
      [
       2.158920539730161,
       -22.125
      ],
      [
       2.4215246636771326,
       -22.125
      ],
      [
       2.4215246636771326,
       -21.875
      ],
      [
       2.690582959641233,
       -21.875
      ],
      [
       2.9596412556053906,
       -21.875
      ],
      [
       3.228699551569491,
       -21.875
      ],
      [
       3.228699551569491,
       -22.125
      ],
      [
       3.238380809595185,
       -22.125
      ],
      [
       3.5082458770614835,
       -22.125
      ],
      [
       3.7781109445277252,
       -22.125
      ],
      [
       4.047976011994024,
       -22.125
      ],
      [
       4.304932735426007,
       -22.125
      ],
      [
       4.304932735426007,
       -21.875
      ],
      [
       4.573991031390108,
       -21.875
      ],
      [
       4.573991031390108,
       -22.125
      ],
      [
       4.587706146926564,
       -22.125
      ],
      [
       4.857571214392806,
       -22.125
      ],
      [
       4.857571214392806,
       -22.375
      ],
      [
       4.864864864864842,
       -22.375
      ],
      [
       4.864864864864842,
       -22.625
      ],
      [
       4.872180451127804,
       -22.625
      ],
      [
       5.142857142857167,
       -22.625
      ],
      [
       5.142857142857167,
       -22.875
      ],
      [
       5.150602409638566,
       -22.875
      ],
      [
       5.150602409638566,
       -23.125
      ],
      [
       5.158371040723978,
       -23.125
      ],
      [
       5.158371040723978,
       -23.375
      ],
      [
       5.173978819969761,
       -23.375
      ],
      [
       5.173978819969761,
       -23.625
      ],
      [
       4.909090909090935,
       -23.625
      ],
      [
       4.909090909090935,
       -23.875
      ],
      [
       4.916540212443124,
       -23.875
      ],
      [
       4.916540212443124,
       -24.125
      ],
      [
       4.6504559270516665,
       -24.125
      ],
      [
       4.6504559270516665,
       -24.375
      ],
      [
       4.3902439024390105,
       -24.375
      ],
      [
       4.3902439024390105,
       -24.625
      ],
      [
       4.115853658536594,
       -24.625
      ],
      [
       3.84146341463412,
       -24.625
      ],
      [
       3.567073170731703,
       -24.625
      ],
      [
       3.2926829268292863,
       -24.625
      ],
      [
       3.0182926829268126,
       -24.625
      ],
      [
       2.743902439024396,
       -24.625
      ],
      [
       2.743902439024396,
       -24.375
      ],
      [
       2.7355623100303887,
       -24.375
      ],
      [
       2.462006079027333,
       -24.375
      ],
      [
       2.462006079027333,
       -24.125
      ],
      [
       2.458270106221562,
       -24.125
      ],
      [
       2.1851289833080614,
       -24.125
      ],
      [
       2.1851289833080614,
       -23.875
      ],
      [
       2.181818181818187,
       -23.875
      ],
      [
       1.909090909090935,
       -23.875
      ]
     ]
    ]
   }
  }
 ]
}