{
 "type": "FeatureCollection",
 "name": "NGC0059_survey_footprint",
 "crs": {
  "type": "name",
  "properties": {
   "name": "ICRS"
  }
 },
 "metadata": {
  "host": "NGC0059",
  "ra": 3.8549,
  "dec": -21.444,
  "bands": [
   "g",
   "i"
  ],
  "r_ang_deg": 1.34,
  "distance_Mpc": 4.9,
  "surveys": [
   "DECaLS"
  ]
 },
 "features": [
  {
   "type": "Feature",
   "properties": {
    "host": "NGC0059",
    "survey": "DECaLS"
   },
   "geometry": {
    "type": "Polygon",
    "coordinates": [
     [
      [
       2.9729729729729684,
       -22.375
      ],
      [
       2.968515742128943,
       -22.375
      ],
      [
       2.6986506746626446,
       -22.375
      ],
      [
       2.6986506746626446,
       -22.125
      ],
      [
       2.690582959641233,
       -22.125
      ],
      [
       2.690582959641233,
       -21.875
      ],
      [
       2.6865671641791096,
       -21.875
      ],
      [
       2.4179104477611872,
       -21.875
      ],
      [
       2.4179104477611872,
       -21.625
      ],
      [
       2.4143070044709134,
       -21.625
      ],
      [
       2.4143070044709134,
       -21.375
      ],
      [
       2.4107142857142776,
       -21.375
      ],
      [
       2.4107142857142776,
       -21.125
      ],
      [
       2.674591381872233,
       -21.125
      ],
      [
       2.674591381872233,
       -20.875
      ],
      [
       2.6706231454006115,
       -20.875
      ],
      [
       2.6706231454006115,
       -20.625
      ],
      [
       2.933333333333337,
       -20.625
      ],
      [
       2.933333333333337,
       -20.375
      ],
      [
       3.1905465288035657,
       -20.375
      ],
      [
       3.1905465288035657,
       -20.125
      ],
      [
       3.4564254062038344,
       -20.125
      ],
      [
       3.72230428360416,
       -20.125
      ],
      [
       3.9881831610044287,
       -20.125
      ],
      [
       4.254062038404754,
       -20.125
      ],
      [
       4.519940915805023,
       -20.125
      ],
      [
       4.519940915805023,
       -20.375
      ],
      [
       4.53333333333336,
       -20.375
      ],
      [
       4.800000000000011,
       -20.375
      ],
      [
       4.800000000000011,
       -20.625
      ],
      [
       4.807121661721055,
       -20.625
      ],
      [
       5.074183976261111,
       -20.625
      ],
      [
       5.074183976261111,
       -20.875
      ],
      [
       5.081723625557231,
       -20.875
      ],
      [
       5.081723625557231,
       -21.125
      ],
      [
       5.089285714285722,
       -21.125
      ],
      [
       5.089285714285722,
       -21.375
      ],
      [
       5.096870342771979,
       -21.375
      ],
      [
       5.096870342771979,
       -21.625
      ],
      [
       5.104477611940297,
       -21.625
      ],
      [
       5.104477611940297,
       -21.875
      ],
      [
       5.112107623318366,
       -21.875
      ],
      [
       5.112107623318366,
       -22.125
      ],
      [
       4.857571214392806,
       -22.125
      ],
      [
       4.857571214392806,
       -22.375
      ],
      [
       4.594594594594582,
       -22.375
      ],
      [
       4.594594594594582,
       -22.625
      ],
      [
       4.324324324324323,
       -22.625
      ],
      [
       4.054054054054063,
       -22.625
      ],
      [
       3.7837837837838038,
       -22.625
      ],
      [
       3.5135135135134874,
       -22.625
      ],
      [
       3.243243243243228,
       -22.625
      ],
      [
       2.9729729729729684,
       -22.625
      ],
      [
       2.9729729729729684,
       -22.375
      ]
     ]
    ]
   }
  }
 ]
}