{
 "type": "FeatureCollection",
 "name": "NGC0625_survey_footprint",
 "crs": {
  "type": "name",
  "properties": {
   "name": "ICRS"
  }
 },
 "metadata": {
  "host": "NGC0625",
  "ra": 23.7692,
  "dec": -41.4366,
  "bands": [
   "g",
   "r"
  ],
  "r_ang_deg": 1.86,
  "distance_Mpc": 4.02,
  "surveys": [
   "DECaLS"
  ]
 },
 "features": [
  {
   "type": "Feature",
   "properties": {
    "host": "NGC0625",
    "survey": "DECaLS"
   },
   "geometry": {
    "type": "Polygon",
    "coordinates": [
     [
      [
       21.818181818181813,
       -42.875
      ],
      [
       21.735849056603797,
       -42.875
      ],
      [
       21.735849056603797,
       -42.625
      ],
      [
       21.65413533834584,
       -42.625
      ],
      [
       21.31578947368422,
       -42.625
      ],
      [
       21.31578947368422,
       -42.375
      ],
      [
       21.196261682243005,
       -42.375
      ],
      [
       21.196261682243005,
       -42.125
      ],
      [
       21.117318435754214,
       -42.125
      ],
      [
       21.117318435754214,
       -41.875
      ],
      [
       21.03896103896102,
       -41.875
      ],
      [
       21.03896103896102,
       -41.625
      ],
      [
       20.961182994454703,
       -41.625
      ],
      [
       20.961182994454703,
       -41.375
      ],
      [
       21.215469613259643,
       -41.375
      ],
      [
       21.215469613259643,
       -41.125
      ],
      [
       21.13761467889907,
       -41.125
      ],
      [
       21.13761467889907,
       -40.875
      ],
      [
       21.060329067641703,
       -40.875
      ],
      [
       21.060329067641703,
       -40.625
      ],
      [
       21.311475409836078,
       -40.625
      ],
      [
       21.311475409836078,
       -40.375
      ],
      [
       21.560798548094397,
       -40.375
      ],
      [
       21.560798548094397,
       -40.125
      ],
      [
       21.808318264014474,
       -40.125
      ],
      [
       21.808318264014474,
       -39.875
      ],
      [
       22.054054054054063,
       -39.875
      ],
      [
       22.054054054054063,
       -39.625
      ],
      [
       22.378378378378386,
       -39.625
      ],
      [
       22.621184919210066,
       -39.625
      ],
      [
       22.621184919210066,
       -39.375
      ],
      [
       22.944344703770184,
       -39.375
      ],
      [
       23.26750448833036,
       -39.375
      ],
      [
       23.59066427289048,
       -39.375
      ],
      [
       23.913824057450597,
       -39.375
      ],
      [
       23.913824057450654,
       -39.375
      ],
      [
       24.236983842010773,
       -39.375
      ],
      [
       24.56014362657089,
       -39.375
      ],
      [
       24.883303411131067,
       -39.375
      ],
      [
       24.883303411131067,
       -39.625
      ],
      [
       24.97297297297297,
       -39.625
      ],
      [
       25.29729729729729,
       -39.625
      ],
      [
       25.29729729729729,
       -39.875
      ],
      [
       25.388788426763085,
       -39.875
      ],
      [
       25.714285714285722,
       -39.875
      ],
      [
       25.714285714285722,
       -40.125
      ],
      [
       25.80762250453722,
       -40.125
      ],
      [
       26.13430127041744,
       -40.125
      ],
      [
       26.13430127041744,
       -40.375
      ],
      [
       26.229508196721326,
       -40.375
      ],
      [
       26.229508196721326,
       -40.625
      ],
      [
       26.325411334552086,
       -40.625
      ],
      [
       26.325411334552086,
       -40.875
      ],
      [
       26.42201834862385,
       -40.875
      ],
      [
       26.42201834862385,
       -41.125
      ],
      [
       26.519337016574582,
       -41.125
      ],
      [
       26.519337016574582,
       -41.375
      ],
      [
       26.617375231053586,
       -41.375
      ],
      [
       26.617375231053586,
       -41.625
      ],
      [
       26.382189239332092,
       -41.625
      ],
      [
       26.382189239332092,
       -41.875
      ],
      [
       26.480446927374317,
       -41.875
      ],
      [
       26.480446927374317,
       -42.125
      ],
      [
       26.242990654205585,
       -42.125
      ],
      [
       26.242990654205585,
       -42.375
      ],
      [
       26.0526315789474,
       -42.375
      ],
      [
       26.0526315789474,
       -42.625
      ],
      [
       25.811320754716974,
       -42.625
      ],
      [
       25.811320754716974,
       -42.875
      ],
      [
       25.568181818181813,
       -42.875
      ],
      [
       25.568181818181813,
       -43.125
      ],
      [
       25.323193916349794,
       -43.125
      ],
      [
       25.323193916349794,
       -43.375
      ],
      [
       24.98098859315587,
       -43.375
      ],
      [
       24.638783269962005,
       -43.375
      ],
      [
       24.296577946768082,
       -43.375
      ],
      [
       23.95437262357416,
       -43.375
      ],
      [
       23.612167300380236,
       -43.375
      ],
      [
       23.269961977186313,
       -43.375
      ],
      [
       22.92775665399239,
       -43.375
      ],
      [
       22.585551330798467,
       -43.375
      ],
      [
       22.243346007604544,
       -43.375
      ],
      [
       22.243346007604544,
       -43.125
      ],
      [
       22.159090909090935,
       -43.125
      ],
      [
       22.159090909090878,
       -43.125
      ],
      [
       21.818181818181813,
       -43.125
      ],
      [
       21.818181818181813,
       -42.875
      ]
     ],
     [
      [
       23.119266055045898,
       -40.875
      ],
      [
       23.11926605504584,
       -40.875
      ],
      [
       23.11926605504584,
       -41.125
      ],
      [
       23.119266055045898,
       -41.125
      ],
      [
       23.119266055045898,
       -40.875
      ]
     ],
     [
      [
       26.091743119266027,
       -41.125
      ],
      [
       26.091743119266084,
       -41.125
      ],
      [
       26.091743119266084,
       -40.875
      ],
      [
       26.091743119266027,
       -40.875
      ],
      [
       26.091743119266027,
       -41.125
      ]
     ]
    ]
   }
  }
 ]
}