{
 "type": "FeatureCollection",
 "name": "NGC1311_survey_footprint",
 "crs": {
  "type": "name",
  "properties": {
   "name": "ICRS"
  }
 },
 "metadata": {
  "host": "NGC1311",
  "ra": 50.0279,
  "dec": -52.1872,
  "bands": [
   "g",
   "r"
  ],
  "r_ang_deg": 1.15,
  "distance_Mpc": 5.55,
  "surveys": [
   "DECaLS"
  ]
 },
 "features": [
  {
   "type": "Feature",
   "properties": {
    "host": "NGC1311",
    "survey": "DECaLS"
   },
   "geometry": {
    "type": "Polygon",
    "coordinates": [
     [
      [
       48.413793103448256,
       -53.125
      ],
      [
       48.413793103448256,
       -52.875
      ],
      [
       48.082191780821915,
       -52.875
      ],
      [
       48.082191780821915,
       -52.625
      ],
      [
       47.863636363636374,
       -52.625
      ],
      [
       47.863636363636374,
       -52.375
      ],
      [
       47.94582392776522,
       -52.375
      ],
      [
       47.94582392776522,
       -52.125
      ],
      [
       48.13483146067415,
       -52.125
      ],
      [
       48.13483146067415,
       -51.875
      ],
      [
       47.919463087248346,
       -51.875
      ],
      [
       47.919463087248346,
       -51.625
      ],
      [
       48.32214765100673,
       -51.625
      ],
      [
       48.39999999999998,
       -51.625
      ],
      [
       48.39999999999998,
       -51.375
      ],
      [
       48.584070796460196,
       -51.375
      ],
      [
       48.584070796460196,
       -51.125
      ],
      [
       48.98230088495575,
       -51.125
      ],
      [
       49.05494505494505,
       -51.125
      ],
      [
       49.05494505494505,
       -50.875
      ],
      [
       49.45054945054943,
       -50.875
      ],
      [
       49.84615384615387,
       -50.875
      ],
      [
       50.24175824175825,
       -50.875
      ],
      [
       50.63736263736263,
       -50.875
      ],
      [
       51.03296703296701,
       -50.875
      ],
      [
       51.03296703296701,
       -51.125
      ],
      [
       51.371681415929174,
       -51.125
      ],
      [
       51.371681415929174,
       -51.375
      ],
      [
       51.60000000000002,
       -51.375
      ],
      [
       52.0,
       -51.375
      ],
      [
       52.0,
       -51.625
      ],
      [
       51.94630872483219,
       -51.625
      ],
      [
       51.94630872483219,
       -51.875
      ],
      [
       52.179775280898866,
       -51.875
      ],
      [
       52.179775280898866,
       -52.125
      ],
      [
       52.00902934537248,
       -52.125
      ],
      [
       52.00902934537248,
       -52.375
      ],
      [
       51.95454545454544,
       -52.375
      ],
      [
       51.95454545454544,
       -52.625
      ],
      [
       52.1917808219178,
       -52.625
      ],
      [
       52.1917808219178,
       -52.875
      ],
      [
       51.780821917808225,
       -52.875
      ],
      [
       51.72413793103448,
       -52.875
      ],
      [
       51.72413793103448,
       -53.125
      ],
      [
       51.31034482758622,
       -53.125
      ],
      [
       51.131639722863724,
       -53.125
      ],
      [
       51.131639722863724,
       -53.375
      ],
      [
       50.715935334872995,
       -53.375
      ],
      [
       50.30023094688221,
       -53.375
      ],
      [
       49.88452655889148,
       -53.375
      ],
      [
       49.468822170900694,
       -53.375
      ],
      [
       49.05311778290991,
       -53.375
      ],
      [
       48.63741339491918,
       -53.375
      ],
      [
       48.63741339491918,
       -53.125
      ],
      [
       48.413793103448256,
       -53.125
      ]
     ],
     [
      [
       49.09090909090912,
       -52.375
      ],
      [
       49.090909090909065,
       -52.375
      ],
      [
       49.090909090909065,
       -52.625
      ],
      [
       49.09090909090912,
       -52.625
      ],
      [
       49.09090909090912,
       -52.375
      ]
     ],
     [
      [
       49.90909090909088,
       -52.625
      ],
      [
       49.909090909090935,
       -52.625
      ],
      [
       49.909090909090935,
       -52.375
      ],
      [
       49.90909090909088,
       -52.375
      ],
      [
       49.90909090909088,
       -52.625
      ]
     ],
     [
      [
       51.196388261850984,
       -52.375
      ],
      [
       51.19638826185104,
       -52.375
      ],
      [
       51.19638826185104,
       -52.125
      ],
      [
       51.196388261850984,
       -52.125
      ],
      [
       51.196388261850984,
       -52.375
      ]
     ]
    ]
   }
  }
 ]
}