{
 "type": "FeatureCollection",
 "name": "NGC1313_survey_footprint",
 "crs": {
  "type": "name",
  "properties": {
   "name": "ICRS"
  }
 },
 "metadata": {
  "host": "NGC1313",
  "ra": 49.5668583,
  "dec": -66.4982611,
  "bands": [
   "g",
   "r"
  ],
  "r_ang_deg": 2.39,
  "distance_Mpc": 4.31,
  "surveys": [
   "DECaLS"
  ]
 },
 "features": [
  {
   "type": "Feature",
   "properties": {
    "host": "NGC1313",
    "survey": "DECaLS"
   },
   "geometry": {
    "type": "Polygon",
    "coordinates": [
     [
      [
       43.71428571428572,
       -67.375
      ],
      [
       43.71428571428572,
       -67.125
      ],
      [
       43.886925795053,
       -67.125
      ],
      [
       43.886925795053,
       -66.875
      ],
      [
       43.42657342657344,
       -66.875
      ],
      [
       43.42657342657344,
       -66.625
      ],
      [
       43.598615916955,
       -66.625
      ],
      [
       43.598615916955,
       -66.375
      ],
      [
       43.76712328767121,
       -66.375
      ],
      [
       43.76712328767121,
       -66.125
      ],
      [
       43.93220338983053,
       -66.125
      ],
      [
       43.93220338983053,
       -65.875
      ],
      [
       44.093959731543634,
       -65.875
      ],
      [
       44.093959731543634,
       -65.625
      ],
      [
       44.25249169435216,
       -65.625
      ],
      [
       44.25249169435216,
       -65.375
      ],
      [
       44.554455445544534,
       -65.375
      ],
      [
       44.554455445544534,
       -65.125
      ],
      [
       44.70588235294116,
       -65.125
      ],
      [
       44.70588235294116,
       -64.875
      ],
      [
       45.29411764705884,
       -64.875
      ],
      [
       45.43689320388347,
       -64.875
      ],
      [
       45.43689320388347,
       -64.625
      ],
      [
       46.019417475728176,
       -64.625
      ],
      [
       46.15384615384613,
       -64.625
      ],
      [
       46.15384615384613,
       -64.375
      ],
      [
       46.730769230769226,
       -64.375
      ],
      [
       46.85714285714289,
       -64.375
      ],
      [
       46.85714285714289,
       -64.125
      ],
      [
       47.428571428571445,
       -64.125
      ],
      [
       48.0,
       -64.125
      ],
      [
       48.571428571428555,
       -64.125
      ],
      [
       49.14285714285711,
       -64.125
      ],
      [
       49.14285714285711,
       -64.375
      ],
      [
       49.14285714285717,
       -64.375
      ],
      [
       49.14285714285717,
       -64.125
      ],
      [
       49.71428571428572,
       -64.125
      ],
      [
       50.28571428571428,
       -64.125
      ],
      [
       50.85714285714283,
       -64.125
      ],
      [
       50.85714285714283,
       -64.375
      ],
      [
       50.85714285714289,
       -64.375
      ],
      [
       50.85714285714289,
       -64.125
      ],
      [
       51.428571428571445,
       -64.125
      ],
      [
       52.0,
       -64.125
      ],
      [
       52.0,
       -64.375
      ],
      [
       52.5,
       -64.375
      ],
      [
       53.076923076923094,
       -64.375
      ],
      [
       53.076923076923094,
       -64.625
      ],
      [
       53.59223300970871,
       -64.625
      ],
      [
       53.59223300970871,
       -64.875
      ],
      [
       54.117647058823536,
       -64.875
      ],
      [
       54.117647058823536,
       -65.125
      ],
      [
       54.65346534653463,
       -65.125
      ],
      [
       54.65346534653463,
       -65.375
      ],
      [
       55.01661129568106,
       -65.375
      ],
      [
       55.01661129568106,
       -65.625
      ],
      [
       54.966442953020135,
       -65.625
      ],
      [
       54.966442953020135,
       -65.875
      ],
      [
       55.525423728813564,
       -65.875
      ],
      [
       55.525423728813564,
       -66.125
      ],
      [
       55.479452054794535,
       -66.125
      ],
      [
       55.479452054794535,
       -66.375
      ],
      [
       55.43252595155707,
       -66.375
      ],
      [
       55.43252595155707,
       -66.625
      ],
      [
       55.38461538461536,
       -66.625
      ],
      [
       55.38461538461536,
       -66.875
      ],
      [
       55.33568904593642,
       -66.875
      ],
      [
       55.33568904593642,
       -67.125
      ],
      [
       55.28571428571428,
       -67.125
      ],
      [
       55.28571428571428,
       -67.375
      ],
      [
       55.23465703971118,
       -67.375
      ],
      [
       55.23465703971118,
       -67.625
      ],
      [
       54.9818181818182,
       -67.625
      ],
      [
       54.9818181818182,
       -67.875
      ],
      [
       54.327272727272714,
       -67.875
      ],
      [
       54.26470588235293,
       -67.875
      ],
      [
       54.26470588235293,
       -68.125
      ],
      [
       53.60294117647061,
       -68.125
      ],
      [
       53.53159851301115,
       -68.125
      ],
      [
       53.53159851301115,
       -68.375
      ],
      [
       52.86245353159853,
       -68.375
      ],
      [
       52.781954887218035,
       -68.375
      ],
      [
       52.781954887218035,
       -68.625
      ],
      [
       52.10526315789474,
       -68.625
      ],
      [
       52.01520912547528,
       -68.625
      ],
      [
       52.01520912547528,
       -68.875
      ],
      [
       51.330798479087434,
       -68.875
      ],
      [
       50.64638783269959,
       -68.875
      ],
      [
       49.9619771863118,
       -68.875
      ],
      [
       49.27756653992395,
       -68.875
      ],
      [
       48.59315589353611,
       -68.875
      ],
      [
       47.90874524714832,
       -68.875
      ],
      [
       47.22433460076047,
       -68.875
      ],
      [
       47.22433460076047,
       -68.625
      ],
      [
       46.691729323308266,
       -68.625
      ],
      [
       46.01503759398497,
       -68.625
      ],
      [
       46.01503759398497,
       -68.375
      ],
      [
       45.50185873605949,
       -68.375
      ],
      [
       45.50185873605949,
       -68.125
      ],
      [
       45.0,
       -68.125
      ],
      [
       45.0,
       -67.875
      ],
      [
       44.5090909090909,
       -67.875
      ],
      [
       44.5090909090909,
       -67.625
      ],
      [
       44.187725631768956,
       -67.625
      ],
      [
       44.187725631768956,
       -67.375
      ],
      [
       43.71428571428572,
       -67.375
      ]
     ],
     [
      [
       46.712802768166114,
       -66.625
      ],
      [
       46.712802768166114,
       -66.375
      ],
      [
       46.71280276816606,
       -66.375
      ],
      [
       46.71280276816606,
       -66.625
      ],
      [
       46.712802768166114,
       -66.625
      ]
     ],
     [
      [
       46.84931506849318,
       -66.125
      ],
      [
       46.84931506849313,
       -66.125
      ],
      [
       46.84931506849313,
       -66.375
      ],
      [
       46.84931506849318,
       -66.375
      ],
      [
       46.84931506849318,
       -66.125
      ]
     ],
     [
      [
       46.137184115523496,
       -67.625
      ],
      [
       46.137184115523496,
       -67.375
      ],
      [
       46.13718411552344,
       -67.375
      ],
      [
       46.13718411552344,
       -67.625
      ],
      [
       46.137184115523496,
       -67.625
      ]
     ],
     [
      [
       44.35714285714289,
       -67.375
      ],
      [
       44.35714285714289,
       -67.125
      ],
      [
       44.35714285714283,
       -67.125
      ],
      [
       44.35714285714283,
       -67.375
      ],
      [
       44.35714285714289,
       -67.375
      ]
     ],
     [
      [
       45.64285714285717,
       -67.375
      ],
      [
       45.64285714285717,
       -67.125
      ],
      [
       45.64285714285711,
       -67.125
      ],
      [
       45.64285714285711,
       -67.375
      ],
      [
       45.64285714285717,
       -67.375
      ]
     ],
     [
      [
       45.661764705882376,
       -67.875
      ],
      [
       45.66176470588232,
       -67.875
      ],
      [
       45.66176470588232,
       -68.125
      ],
      [
       45.661764705882376,
       -68.125
      ],
      [
       45.661764705882376,
       -67.875
      ]
     ],
     [
      [
       47.11409395973152,
       -65.875
      ],
      [
       47.114093959731576,
       -65.875
      ],
      [
       47.114093959731576,
       -65.625
      ],
      [
       47.11409395973152,
       -65.625
      ],
      [
       47.11409395973152,
       -65.875
      ]
     ],
     [
      [
       49.09090909090912,
       -66.875
      ],
      [
       49.09090909090912,
       -66.625
      ],
      [
       49.090909090909065,
       -66.625
      ],
      [
       49.090909090909065,
       -66.875
      ],
      [
       49.09090909090912,
       -66.875
      ]
     ],
     [
      [
       48.85714285714289,
       -67.125
      ],
      [
       48.85714285714283,
       -67.125
      ],
      [
       48.85714285714283,
       -67.375
      ],
      [
       48.85714285714289,
       -67.375
      ],
      [
       48.85714285714289,
       -67.125
      ]
     ],
     [
      [
       50.14285714285711,
       -67.125
      ],
      [
       50.14285714285711,
       -67.375
      ],
      [
       50.14285714285717,
       -67.375
      ],
      [
       50.14285714285717,
       -67.125
      ],
      [
       50.14285714285711,
       -67.125
      ]
     ],
     [
      [
       52.55033557046983,
       -65.875
      ],
      [
       52.55033557046983,
       -65.625
      ],
      [
       52.55033557046977,
       -65.625
      ],
      [
       52.55033557046977,
       -65.875
      ],
      [
       52.55033557046983,
       -65.875
      ]
     ],
     [
      [
       53.35714285714283,
       -67.125
      ],
      [
       53.35714285714283,
       -67.375
      ],
      [
       53.35714285714289,
       -67.375
      ],
      [
       53.35714285714289,
       -67.125
      ],
      [
       53.35714285714283,
       -67.125
      ]
     ],
     [
      [
       54.64285714285711,
       -67.125
      ],
      [
       54.64285714285711,
       -67.375
      ],
      [
       54.64285714285717,
       -67.375
      ],
      [
       54.64285714285717,
       -67.125
      ],
      [
       54.64285714285711,
       -67.125
      ]
     ],
     [
      [
       54.809688581314845,
       -66.375
      ],
      [
       54.809688581314845,
       -66.625
      ],
      [
       54.8096885813149,
       -66.625
      ],
      [
       54.8096885813149,
       -66.375
      ],
      [
       54.809688581314845,
       -66.375
      ]
     ],
     [
      [
       53.49650349650352,
       -66.875
      ],
      [
       53.49650349650352,
       -66.625
      ],
      [
       53.496503496503465,
       -66.625
      ],
      [
       53.496503496503465,
       -66.875
      ],
      [
       53.49650349650352,
       -66.875
      ]
     ]
    ]
   }
  }
 ]
}