{
 "type": "FeatureCollection",
 "name": "NGC1800_survey_footprint",
 "crs": {
  "type": "name",
  "properties": {
   "name": "ICRS"
  }
 },
 "metadata": {
  "host": "NGC1800",
  "ra": 76.6067,
  "dec": -31.9543,
  "bands": [
   "g",
   "r"
  ],
  "r_ang_deg": 0.92,
  "distance_Mpc": 7.63,
  "surveys": [
   "DECaLS"
  ]
 },
 "features": [
  {
   "type": "Feature",
   "properties": {
    "host": "NGC1800",
    "survey": "DECaLS"
   },
   "geometry": {
    "type": "Polygon",
    "coordinates": [
     [
      [
       75.54098360655735,
       -32.125
      ],
      [
       75.58823529411768,
       -32.125
      ],
      [
       75.58823529411768,
       -31.875
      ],
      [
       75.63517915309444,
       -31.875
      ],
      [
       75.63517915309444,
       -31.625
      ],
      [
       75.51219512195121,
       -31.625
      ],
      [
       75.51219512195121,
       -31.375
      ],
      [
       75.8048780487805,
       -31.375
      ],
      [
       75.85089141004863,
       -31.375
      ],
      [
       75.85089141004863,
       -31.125
      ],
      [
       76.14262560777956,
       -31.125
      ],
      [
       76.43435980551055,
       -31.125
      ],
      [
       76.72609400324149,
       -31.125
      ],
      [
       77.01782820097242,
       -31.125
      ],
      [
       77.3095623987034,
       -31.125
      ],
      [
       77.3095623987034,
       -31.375
      ],
      [
       77.5609756097561,
       -31.375
      ],
      [
       77.5609756097561,
       -31.625
      ],
      [
       77.68729641693812,
       -31.625
      ],
      [
       77.68729641693812,
       -31.875
      ],
      [
       77.64705882352939,
       -31.875
      ],
      [
       77.64705882352939,
       -32.125
      ],
      [
       77.60655737704917,
       -32.125
      ],
      [
       77.60655737704917,
       -32.375
      ],
      [
       77.4384236453202,
       -32.375
      ],
      [
       77.4384236453202,
       -32.625
      ],
      [
       77.14285714285717,
       -32.625
      ],
      [
       77.14285714285711,
       -32.625
      ],
      [
       77.10049423393741,
       -32.625
      ],
      [
       77.10049423393741,
       -32.875
      ],
      [
       76.80395387149917,
       -32.875
      ],
      [
       76.50741350906094,
       -32.875
      ],
      [
       76.21087314662276,
       -32.875
      ],
      [
       76.21087314662276,
       -32.625
      ],
      [
       76.2108731466227,
       -32.625
      ],
      [
       76.2108731466227,
       -32.875
      ],
      [
       75.91433278418452,
       -32.875
      ],
      [
       75.91433278418452,
       -32.625
      ],
      [
       75.6650246305419,
       -32.625
      ],
      [
       75.6650246305419,
       -32.375
      ],
      [
       75.54098360655735,
       -32.375
      ],
      [
       75.54098360655735,
       -32.125
      ]
     ]
    ]
   }
  }
 ]
}