{
 "type": "FeatureCollection",
 "name": "NGC1705_survey_footprint",
 "crs": {
  "type": "name",
  "properties": {
   "name": "ICRS"
  }
 },
 "metadata": {
  "host": "NGC1705",
  "ra": 73.5574,
  "dec": -53.3607,
  "bands": [
   "g",
   "r"
  ],
  "r_ang_deg": 1.07,
  "distance_Mpc": 5.73,
  "surveys": [
   "DECaLS"
  ]
 },
 "features": [
  {
   "type": "Feature",
   "properties": {
    "host": "NGC1705",
    "survey": "DECaLS"
   },
   "geometry": {
    "type": "Polygon",
    "coordinates": [
     [
      [
       71.9158878504673,
       -53.875
      ],
      [
       71.9158878504673,
       -53.625
      ],
      [
       71.58139534883719,
       -53.625
      ],
      [
       71.58139534883719,
       -53.375
      ],
      [
       71.91685912240183,
       -53.375
      ],
      [
       71.91685912240183,
       -53.125
      ],
      [
       72.0,
       -53.125
      ],
      [
       72.0,
       -52.875
      ],
      [
       71.91780821917808,
       -52.875
      ],
      [
       71.91780821917808,
       -52.625
      ],
      [
       72.32876712328766,
       -52.625
      ],
      [
       72.40909090909088,
       -52.625
      ],
      [
       72.40909090909088,
       -52.375
      ],
      [
       72.81818181818181,
       -52.375
      ],
      [
       73.22727272727275,
       -52.375
      ],
      [
       73.63636363636363,
       -52.375
      ],
      [
       74.04545454545456,
       -52.375
      ],
      [
       74.45454545454544,
       -52.375
      ],
      [
       74.86363636363637,
       -52.375
      ],
      [
       74.86363636363637,
       -52.625
      ],
      [
       75.20547945205476,
       -52.625
      ],
      [
       75.20547945205476,
       -52.875
      ],
      [
       75.31034482758622,
       -52.875
      ],
      [
       75.31034482758622,
       -53.125
      ],
      [
       75.24249422632795,
       -53.125
      ],
      [
       75.24249422632795,
       -53.375
      ],
      [
       75.3488372093023,
       -53.375
      ],
      [
       75.3488372093023,
       -53.625
      ],
      [
       75.2803738317757,
       -53.625
      ],
      [
       75.2803738317757,
       -53.875
      ],
      [
       74.96470588235297,
       -53.875
      ],
      [
       74.96470588235297,
       -54.125
      ],
      [
       74.64454976303318,
       -54.125
      ],
      [
       74.64454976303318,
       -54.375
      ],
      [
       74.21800947867297,
       -54.375
      ],
      [
       73.79146919431281,
       -54.375
      ],
      [
       73.3649289099526,
       -54.375
      ],
      [
       72.93838862559244,
       -54.375
      ],
      [
       72.51184834123222,
       -54.375
      ],
      [
       72.51184834123222,
       -54.125
      ],
      [
       72.42352941176472,
       -54.125
      ],
      [
       72.0,
       -54.125
      ],
      [
       72.0,
       -53.875
      ],
      [
       71.9158878504673,
       -53.875
      ]
     ],
     [
      [
       73.15068493150682,
       -52.625
      ],
      [
       73.15068493150682,
       -52.875
      ],
      [
       73.15068493150687,
       -52.875
      ],
      [
       73.15068493150687,
       -52.625
      ],
      [
       73.15068493150682,
       -52.625
      ]
     ],
     [
      [
       72.83720930232556,
       -53.375
      ],
      [
       72.83720930232556,
       -53.625
      ],
      [
       72.83720930232562,
       -53.625
      ],
      [
       72.83720930232562,
       -53.375
      ],
      [
       72.83720930232556,
       -53.375
      ]
     ],
     [
      [
       73.67441860465112,
       -53.625
      ],
      [
       73.67441860465118,
       -53.625
      ],
      [
       73.67441860465118,
       -53.375
      ],
      [
       73.67441860465112,
       -53.375
      ],
      [
       73.67441860465112,
       -53.625
      ]
     ],
     [
      [
       72.73972602739724,
       -52.875
      ],
      [
       72.7397260273973,
       -52.875
      ],
      [
       72.7397260273973,
       -52.625
      ],
      [
       72.73972602739724,
       -52.625
      ],
      [
       72.73972602739724,
       -52.875
      ]
     ],
     [
      [
       74.79452054794518,
       -52.875
      ],
      [
       74.79452054794524,
       -52.875
      ],
      [
       74.79452054794524,
       -52.625
      ],
      [
       74.79452054794518,
       -52.625
      ],
      [
       74.79452054794518,
       -52.875
      ]
     ]
    ]
   }
  }
 ]
}