{
 "type": "FeatureCollection",
 "name": "NGC2188_survey_footprint",
 "crs": {
  "type": "name",
  "properties": {
   "name": "ICRS"
  }
 },
 "metadata": {
  "host": "NGC2188",
  "ra": 92.539708,
  "dec": -34.106207,
  "bands": [
   "g",
   "r"
  ],
  "r_ang_deg": 0.97,
  "distance_Mpc": 8.39,
  "surveys": [
   "DECaLS"
  ]
 },
 "features": [
  {
   "type": "Feature",
   "properties": {
    "host": "NGC2188",
    "survey": "DECaLS"
   },
   "geometry": {
    "type": "Polygon",
    "coordinates": [
     [
      [
       91.36593591905563,
       -34.875
      ],
      [
       91.36593591905563,
       -34.625
      ],
      [
       91.36134453781511,
       -34.625
      ],
      [
       91.05882352941177,
       -34.625
      ],
      [
       91.05882352941177,
       -34.375
      ],
      [
       91.05527638190955,
       -34.375
      ],
      [
       91.05527638190955,
       -34.125
      ],
      [
       91.2040133779264,
       -34.125
      ],
      [
       91.2040133779264,
       -33.875
      ],
      [
       91.19999999999999,
       -33.875
      ],
      [
       91.19999999999999,
       -33.625
      ],
      [
       91.19601328903656,
       -33.625
      ],
      [
       91.19601328903656,
       -33.375
      ],
      [
       91.34328358208955,
       -33.375
      ],
      [
       91.34328358208955,
       -33.125
      ],
      [
       91.64179104477614,
       -33.125
      ],
      [
       91.93388429752065,
       -33.125
      ],
      [
       91.93388429752065,
       -32.875
      ],
      [
       92.23140495867767,
       -32.875
      ],
      [
       92.5289256198347,
       -32.875
      ],
      [
       92.82644628099172,
       -32.875
      ],
      [
       93.12396694214874,
       -32.875
      ],
      [
       93.12396694214874,
       -33.125
      ],
      [
       93.13432835820896,
       -33.125
      ],
      [
       93.43283582089555,
       -33.125
      ],
      [
       93.73134328358208,
       -33.125
      ],
      [
       93.73134328358208,
       -33.375
      ],
      [
       93.8870431893688,
       -33.375
      ],
      [
       93.8870431893688,
       -33.625
      ],
      [
       93.89999999999998,
       -33.625
      ],
      [
       93.89999999999998,
       -33.875
      ],
      [
       93.91304347826087,
       -33.875
      ],
      [
       93.91304347826087,
       -34.125
      ],
      [
       94.070351758794,
       -34.125
      ],
      [
       94.070351758794,
       -34.375
      ],
      [
       94.0840336134454,
       -34.375
      ],
      [
       94.0840336134454,
       -34.625
      ],
      [
       93.79426644182126,
       -34.625
      ],
      [
       93.79426644182126,
       -34.875
      ],
      [
       93.502538071066,
       -34.875
      ],
      [
       93.502538071066,
       -35.125
      ],
      [
       93.20882852292021,
       -35.125
      ],
      [
       93.20882852292021,
       -35.375
      ],
      [
       92.90322580645159,
       -35.375
      ],
      [
       92.59762308998302,
       -35.375
      ],
      [
       92.29202037351445,
       -35.375
      ],
      [
       91.98641765704582,
       -35.375
      ],
      [
       91.98641765704582,
       -35.125
      ],
      [
       91.97969543147207,
       -35.125
      ],
      [
       91.67512690355329,
       -35.125
      ],
      [
       91.37055837563452,
       -35.125
      ],
      [
       91.37055837563452,
       -34.875
      ],
      [
       91.36593591905563,
       -34.875
      ]
     ],
     [
      [
       92.89340101522839,
       -35.125
      ],
      [
       92.89340101522845,
       -35.125
      ],
      [
       92.89340101522845,
       -34.875
      ],
      [
       92.89340101522839,
       -34.875
      ],
      [
       92.89340101522839,
       -35.125
      ]
     ]
    ]
   }
  }
 ]
}