{
 "type": "FeatureCollection",
 "name": "NGC3274_survey_footprint",
 "crs": {
  "type": "name",
  "properties": {
   "name": "ICRS"
  }
 },
 "metadata": {
  "host": "NGC3274",
  "ra": 158.07125,
  "dec": 27.66861111111111,
  "bands": [
   "g",
   "r"
  ],
  "r_ang_deg": 0.7,
  "distance_Mpc": 10.0,
  "surveys": [
   "DECaLS"
  ]
 },
 "features": [
  {
   "type": "Feature",
   "properties": {
    "host": "NGC3274",
    "survey": "DECaLS"
   },
   "geometry": {
    "type": "Polygon",
    "coordinates": [
     [
      [
       157.88491446345256,
       26.875
      ],
      [
       157.60497667185064,
       26.875
      ],
      [
       157.32503888024883,
       26.875
      ],
      [
       157.32503888024883,
       27.125
      ],
      [
       157.25429017160684,
       27.125
      ],
      [
       157.25429017160684,
       27.375
      ],
      [
       157.21875,
       27.375
      ],
      [
       157.21875,
       27.625
      ],
      [
       157.14733542319755,
       27.625
      ],
      [
       157.14733542319755,
       27.875
      ],
      [
       157.11145996860284,
       27.875
      ],
      [
       157.11145996860284,
       28.125
      ],
      [
       157.32283464566933,
       28.125
      ],
      [
       157.32283464566933,
       28.375
      ],
      [
       157.57097791798105,
       28.375
      ],
      [
       157.57097791798105,
       28.625
      ],
      [
       157.85488958990538,
       28.625
      ],
      [
       158.1388012618297,
       28.625
      ],
      [
       158.42271293375393,
       28.625
      ],
      [
       158.42271293375393,
       28.375
      ],
      [
       158.45669291338584,
       28.375
      ],
      [
       158.74015748031502,
       28.375
      ],
      [
       158.74015748031502,
       28.125
      ],
      [
       158.80690737833595,
       28.125
      ],
      [
       159.0894819466248,
       28.125
      ],
      [
       159.0894819466248,
       27.875
      ],
      [
       159.1222570532916,
       27.875
      ],
      [
       159.1222570532916,
       27.625
      ],
      [
       158.90625,
       27.625
      ],
      [
       158.90625,
       27.375
      ],
      [
       158.9391575663027,
       27.375
      ],
      [
       158.9391575663027,
       27.125
      ],
      [
       158.7247278382581,
       27.125
      ],
      [
       158.7247278382581,
       26.875
      ],
      [
       158.4447900466563,
       26.875
      ],
      [
       158.16485225505448,
       26.875
      ],
      [
       157.88491446345256,
       26.875
      ]
     ]
    ]
   }
  }
 ]
}