{
 "type": "FeatureCollection",
 "name": "NGC4605_survey_footprint",
 "crs": {
  "type": "name",
  "properties": {
   "name": "ICRS"
  }
 },
 "metadata": {
  "host": "NGC4605",
  "ra": 189.997,
  "dec": 61.6093,
  "bands": [
   "g",
   "r"
  ],
  "r_ang_deg": 1.6,
  "distance_Mpc": 5.55,
  "surveys": [
   "DECaLS"
  ]
 },
 "features": [
  {
   "type": "Feature",
   "properties": {
    "host": "NGC4605",
    "survey": "DECaLS"
   },
   "geometry": {
    "type": "Polygon",
    "coordinates": [
     [
      [
       188.02228412256272,
       60.375
      ],
      [
       187.58426966292132,
       60.375
      ],
      [
       187.58426966292132,
       60.625
      ],
      [
       187.1186440677966,
       60.625
      ],
      [
       187.1186440677966,
       60.875
      ],
      [
       186.66666666666674,
       60.875
      ],
      [
       186.66666666666674,
       61.125
      ],
      [
       186.72413793103442,
       61.125
      ],
      [
       186.72413793103442,
       61.375
      ],
      [
       186.78260869565213,
       61.375
      ],
      [
       186.78260869565213,
       61.625
      ],
      [
       186.82215743440236,
       61.625
      ],
      [
       186.82215743440236,
       61.875
      ],
      [
       186.88235294117646,
       61.875
      ],
      [
       186.88235294117646,
       62.125
      ],
      [
       186.94362017804156,
       62.125
      ],
      [
       186.94362017804156,
       62.375
      ],
      [
       187.0059880239521,
       62.375
      ],
      [
       187.0059880239521,
       62.625
      ],
      [
       187.54491017964074,
       62.625
      ],
      [
       187.59036144578317,
       62.625
      ],
      [
       187.59036144578317,
       62.875
      ],
      [
       188.132530120482,
       62.875
      ],
      [
       188.20668693009122,
       62.875
      ],
      [
       188.20668693009122,
       63.125
      ],
      [
       188.75379939209722,
       63.125
      ],
      [
       188.75379939209722,
       62.875
      ],
      [
       188.75379939209733,
       62.875
      ],
      [
       188.75379939209733,
       63.125
      ],
      [
       189.30091185410333,
       63.125
      ],
      [
       189.84802431610944,
       63.125
      ],
      [
       190.39513677811556,
       63.125
      ],
      [
       190.94224924012155,
       63.125
      ],
      [
       191.48936170212767,
       63.125
      ],
      [
       192.03647416413378,
       63.125
      ],
      [
       192.03647416413378,
       62.875
      ],
      [
       192.46987951807228,
       62.875
      ],
      [
       192.46987951807228,
       62.625
      ],
      [
       192.93413173652698,
       62.625
      ],
      [
       192.93413173652698,
       62.375
      ],
      [
       193.353115727003,
       62.375
      ],
      [
       193.353115727003,
       62.125
      ],
      [
       193.23529411764707,
       62.125
      ],
      [
       193.23529411764707,
       61.875
      ],
      [
       193.11953352769683,
       61.875
      ],
      [
       193.11953352769683,
       61.625
      ],
      [
       193.56521739130437,
       61.625
      ],
      [
       193.56521739130437,
       61.375
      ],
      [
       193.44827586206895,
       61.375
      ],
      [
       193.44827586206895,
       61.125
      ],
      [
       193.33333333333326,
       61.125
      ],
      [
       193.33333333333326,
       60.875
      ],
      [
       192.82051282051282,
       60.875
      ],
      [
       192.71186440677968,
       60.875
      ],
      [
       192.71186440677968,
       60.625
      ],
      [
       192.64044943820227,
       60.625
      ],
      [
       192.64044943820227,
       60.375
      ],
      [
       192.13483146067415,
       60.375
      ],
      [
       192.03342618384397,
       60.375
      ],
      [
       192.03342618384397,
       60.125
      ],
      [
       191.53203342618383,
       60.125
      ],
      [
       191.0306406685237,
       60.125
      ],
      [
       190.52924791086355,
       60.125
      ],
      [
       190.52924791086355,
       60.375
      ],
      [
       190.52924791086343,
       60.375
      ],
      [
       190.52924791086343,
       60.125
      ],
      [
       190.0278551532033,
       60.125
      ],
      [
       189.52646239554315,
       60.125
      ],
      [
       189.025069637883,
       60.125
      ],
      [
       188.52367688022287,
       60.125
      ],
      [
       188.02228412256272,
       60.125
      ],
      [
       188.02228412256272,
       60.375
      ]
     ],
     [
      [
       187.69230769230762,
       60.875
      ],
      [
       187.69230769230774,
       60.875
      ],
      [
       187.69230769230774,
       61.125
      ],
      [
       187.69230769230762,
       61.125
      ],
      [
       187.69230769230762,
       60.875
      ]
     ],
     [
      [
       187.41176470588232,
       62.125
      ],
      [
       187.41176470588232,
       61.875
      ],
      [
       187.41176470588243,
       61.875
      ],
      [
       187.41176470588243,
       62.125
      ],
      [
       187.41176470588232,
       62.125
      ]
     ],
     [
      [
       191.18644067796606,
       60.875
      ],
      [
       191.18644067796606,
       60.625
      ],
      [
       191.18644067796617,
       60.625
      ],
      [
       191.18644067796617,
       60.875
      ],
      [
       191.18644067796606,
       60.875
      ]
     ],
     [
      [
       190.58823529411757,
       62.125
      ],
      [
       190.58823529411757,
       61.875
      ],
      [
       190.58823529411768,
       61.875
      ],
      [
       190.58823529411768,
       62.125
      ],
      [
       190.58823529411757,
       62.125
      ]
     ],
     [
      [
       190.68249258160233,
       62.125
      ],
      [
       190.68249258160245,
       62.125
      ],
      [
       190.68249258160245,
       62.375
      ],
      [
       190.68249258160233,
       62.375
      ],
      [
       190.68249258160233,
       62.125
      ]
     ],
     [
      [
       192.30769230769226,
       60.875
      ],
      [
       192.30769230769238,
       60.875
      ],
      [
       192.30769230769238,
       61.125
      ],
      [
       192.30769230769226,
       61.125
      ],
      [
       192.30769230769226,
       60.875
      ]
     ],
     [
      [
       192.17647058823525,
       62.125
      ],
      [
       192.17647058823525,
       61.875
      ],
      [
       192.17647058823536,
       61.875
      ],
      [
       192.17647058823536,
       62.125
      ],
      [
       192.17647058823525,
       62.125
      ]
     ]
    ]
   }
  }
 ]
}