{
 "type": "FeatureCollection",
 "name": "NGC4625_survey_footprint",
 "crs": {
  "type": "name",
  "properties": {
   "name": "ICRS"
  }
 },
 "metadata": {
  "host": "NGC4625",
  "ra": 190.4696,
  "dec": 41.274,
  "bands": [
   "g",
   "r"
  ],
  "r_ang_deg": 0.72,
  "distance_Mpc": 11.75,
  "surveys": [
   "DECaLS"
  ]
 },
 "features": [
  {
   "type": "Feature",
   "properties": {
    "host": "NGC4625",
    "survey": "DECaLS"
   },
   "geometry": {
    "type": "Polygon",
    "coordinates": [
     [
      [
       189.872029250457,
       40.625
      ],
      [
       189.54296160877516,
       40.625
      ],
      [
       189.54296160877516,
       40.875
      ],
      [
       189.57798165137615,
       40.875
      ],
      [
       189.57798165137615,
       41.125
      ],
      [
       189.28176795580112,
       41.125
      ],
      [
       189.28176795580112,
       41.375
      ],
      [
       189.31608133086877,
       41.375
      ],
      [
       189.31608133086877,
       41.625
      ],
      [
       189.64879852125694,
       41.625
      ],
      [
       189.68460111317256,
       41.625
      ],
      [
       189.68460111317256,
       41.875
      ],
      [
       190.01855287569572,
       41.875
      ],
      [
       190.0558659217877,
       41.875
      ],
      [
       190.0558659217877,
       42.125
      ],
      [
       190.3910614525139,
       42.125
      ],
      [
       190.3910614525139,
       41.875
      ],
      [
       190.391061452514,
       41.875
      ],
      [
       190.391061452514,
       42.125
      ],
      [
       190.7262569832402,
       42.125
      ],
      [
       191.06145251396651,
       42.125
      ],
      [
       191.06145251396651,
       41.875
      ],
      [
       191.35435992578846,
       41.875
      ],
      [
       191.35435992578846,
       41.625
      ],
      [
       191.64510166358593,
       41.625
      ],
      [
       191.64510166358593,
       41.375
      ],
      [
       191.6022099447514,
       41.375
      ],
      [
       191.6022099447514,
       41.125
      ],
      [
       191.55963302752298,
       41.125
      ],
      [
       191.55963302752298,
       40.875
      ],
      [
       191.2293577981652,
       40.875
      ],
      [
       191.2293577981651,
       40.875
      ],
      [
       191.18829981718466,
       40.875
      ],
      [
       191.18829981718466,
       40.625
      ],
      [
       190.8592321755027,
       40.625
      ],
      [
       190.8196721311475,
       40.625
      ],
      [
       190.8196721311475,
       40.375
      ],
      [
       190.4918032786885,
       40.375
      ],
      [
       190.1639344262295,
       40.375
      ],
      [
       190.1639344262295,
       40.625
      ],
      [
       189.872029250457,
       40.625
      ]
     ]
    ]
   }
  }
 ]
}