{
 "type": "FeatureCollection",
 "name": "NGC4707_survey_footprint",
 "crs": {
  "type": "name",
  "properties": {
   "name": "ICRS"
  }
 },
 "metadata": {
  "host": "NGC4707",
  "ra": 192.0931,
  "dec": 51.1655,
  "bands": [
   "g",
   "r"
  ],
  "r_ang_deg": 0.89,
  "distance_Mpc": 6.52,
  "surveys": [
   "DECaLS"
  ]
 },
 "features": [
  {
   "type": "Feature",
   "properties": {
    "host": "NGC4707",
    "survey": "DECaLS"
   },
   "geometry": {
    "type": "Polygon",
    "coordinates": [
     [
      [
       190.9565217391305,
       50.625
      ],
      [
       190.63457330415758,
       50.625
      ],
      [
       190.63457330415758,
       50.875
      ],
      [
       190.68131868131866,
       50.875
      ],
      [
       190.68131868131866,
       51.125
      ],
      [
       190.75221238938047,
       51.125
      ],
      [
       190.75221238938047,
       51.375
      ],
      [
       190.79999999999995,
       51.375
      ],
      [
       190.79999999999995,
       51.625
      ],
      [
       190.8724832214765,
       51.625
      ],
      [
       190.8724832214765,
       51.875
      ],
      [
       191.27516778523488,
       51.875
      ],
      [
       191.67785234899327,
       51.875
      ],
      [
       191.7303370786517,
       51.875
      ],
      [
       191.7303370786517,
       52.125
      ],
      [
       192.13483146067415,
       52.125
      ],
      [
       192.5393258426966,
       52.125
      ],
      [
       192.5393258426966,
       51.875
      ],
      [
       192.88590604026842,
       51.875
      ],
      [
       193.2885906040268,
       51.875
      ],
      [
       193.2885906040268,
       51.625
      ],
      [
       193.60000000000002,
       51.625
      ],
      [
       193.60000000000002,
       51.375
      ],
      [
       193.53982300884957,
       51.375
      ],
      [
       193.53982300884957,
       51.125
      ],
      [
       193.4505494505495,
       51.125
      ],
      [
       193.4505494505495,
       50.875
      ],
      [
       193.3916849015318,
       50.875
      ],
      [
       193.3916849015318,
       50.625
      ],
      [
       192.99781181619255,
       50.625
      ],
      [
       192.91304347826087,
       50.625
      ],
      [
       192.91304347826087,
       50.375
      ],
      [
       192.52173913043475,
       50.375
      ],
      [
       192.13043478260875,
       50.375
      ],
      [
       191.73913043478262,
       50.375
      ],
      [
       191.3478260869565,
       50.375
      ],
      [
       190.9565217391305,
       50.375
      ],
      [
       190.9565217391305,
       50.625
      ]
     ],
     [
      [
       192.3451327433629,
       51.125
      ],
      [
       192.3451327433629,
       51.375
      ],
      [
       192.3451327433628,
       51.375
      ],
      [
       192.3451327433628,
       51.125
      ],
      [
       192.3451327433629,
       51.125
      ]
     ]
    ]
   }
  }
 ]
}