{
 "type": "FeatureCollection",
 "name": "NGC4700_survey_footprint",
 "crs": {
  "type": "name",
  "properties": {
   "name": "ICRS"
  }
 },
 "metadata": {
  "host": "NGC4700",
  "ra": 192.283958,
  "dec": -11.409861,
  "bands": [
   "g",
   "r"
  ],
  "r_ang_deg": 0.88,
  "distance_Mpc": 8.8,
  "surveys": [
   "DECaLS"
  ]
 },
 "features": [
  {
   "type": "Feature",
   "properties": {
    "host": "NGC4700",
    "survey": "DECaLS"
   },
   "geometry": {
    "type": "Polygon",
    "coordinates": [
     [
      [
       191.50568181818176,
       -12.375
      ],
      [
       191.25,
       -12.375
      ],
      [
       191.25,
       -12.125
      ],
      [
       191.23404255319156,
       -12.125
      ],
      [
       190.97872340425533,
       -12.125
      ],
      [
       190.97872340425533,
       -11.875
      ],
      [
       190.96317280453263,
       -11.875
      ],
      [
       190.96317280453263,
       -11.625
      ],
      [
       190.96317280453263,
       -11.375
      ],
      [
       190.947666195191,
       -11.375
      ],
      [
       190.947666195191,
       -11.125
      ],
      [
       190.93220338983053,
       -11.125
      ],
      [
       190.93220338983053,
       -10.875
      ],
      [
       191.18644067796606,
       -10.875
      ],
      [
       191.18644067796606,
       -11.125
      ],
      [
       191.18644067796617,
       -11.125
      ],
      [
       191.18644067796617,
       -10.875
      ],
      [
       191.18644067796617,
       -10.625
      ],
      [
       191.4245416078984,
       -10.625
      ],
      [
       191.4245416078984,
       -10.375
      ],
      [
       191.67842031029613,
       -10.375
      ],
      [
       191.67842031029613,
       -10.125
      ],
      [
       191.93229901269387,
       -10.125
      ],
      [
       192.18617771509162,
       -10.125
      ],
      [
       192.44005641748936,
       -10.125
      ],
      [
       192.6939351198871,
       -10.125
      ],
      [
       192.94781382228484,
       -10.125
      ],
      [
       192.94781382228484,
       -10.375
      ],
      [
       193.20169252468258,
       -10.375
      ],
      [
       193.20169252468258,
       -10.625
      ],
      [
       193.22033898305085,
       -10.625
      ],
      [
       193.47457627118638,
       -10.625
      ],
      [
       193.47457627118638,
       -10.875
      ],
      [
       193.47457627118638,
       -11.125
      ],
      [
       193.49363507779344,
       -11.125
      ],
      [
       193.49363507779344,
       -11.375
      ],
      [
       193.51274787535408,
       -11.375
      ],
      [
       193.51274787535408,
       -11.625
      ],
      [
       193.51274787535408,
       -11.875
      ],
      [
       193.531914893617,
       -11.875
      ],
      [
       193.531914893617,
       -12.125
      ],
      [
       193.2954545454545,
       -12.125
      ],
      [
       193.2954545454545,
       -12.375
      ],
      [
       193.03977272727275,
       -12.375
      ],
      [
       193.03977272727275,
       -12.625
      ],
      [
       192.78409090909088,
       -12.625
      ],
      [
       192.52840909090912,
       -12.625
      ],
      [
       192.27272727272725,
       -12.625
      ],
      [
       192.0170454545455,
       -12.625
      ],
      [
       191.76136363636363,
       -12.625
      ],
      [
       191.50568181818176,
       -12.625
      ],
      [
       191.50568181818176,
       -12.375
      ]
     ],
     [
      [
       192.96610169491532,
       -10.625
      ],
      [
       192.9661016949152,
       -10.625
      ],
      [
       192.9661016949152,
       -10.875
      ],
      [
       192.9661016949152,
       -11.125
      ],
      [
       192.96610169491532,
       -11.125
      ],
      [
       192.96610169491532,
       -10.875
      ],
      [
       192.96610169491532,
       -10.625
      ]
     ]
    ]
   }
  }
 ]
}