{
 "type": "FeatureCollection",
 "name": "NGC5068_survey_footprint",
 "crs": {
  "type": "name",
  "properties": {
   "name": "ICRS"
  }
 },
 "metadata": {
  "host": "NGC5068",
  "ra": 199.7283625,
  "dec": -21.0391,
  "bands": [
   "g"
  ],
  "r_ang_deg": 1.95,
  "distance_Mpc": 5.15,
  "surveys": [
   "DECaLS"
  ]
 },
 "features": [
  {
   "type": "Feature",
   "properties": {
    "host": "NGC5068",
    "survey": "DECaLS"
   },
   "geometry": {
    "type": "Polygon",
    "coordinates": [
     [
      [
       198.02690582959644,
       -21.875
      ],
      [
       198.0,
       -21.875
      ],
      [
       198.0,
       -21.625
      ],
      [
       197.97317436661706,
       -21.625
      ],
      [
       197.97317436661706,
       -21.375
      ],
      [
       197.94642857142856,
       -21.375
      ],
      [
       197.94642857142856,
       -21.125
      ],
      [
       197.91976225854387,
       -21.125
      ],
      [
       197.91976225854387,
       -20.875
      ],
      [
       197.893175074184,
       -20.875
      ],
      [
       197.893175074184,
       -20.625
      ],
      [
       197.86666666666667,
       -20.625
      ],
      [
       197.86666666666667,
       -20.375
      ],
      [
       198.0797636632201,
       -20.375
      ],
      [
       198.0797636632201,
       -20.125
      ],
      [
       198.31858407079642,
       -20.125
      ],
      [
       198.31858407079642,
       -19.875
      ],
      [
       198.5567010309278,
       -19.875
      ],
      [
       198.5567010309278,
       -19.625
      ],
      [
       198.79411764705878,
       -19.625
      ],
      [
       198.79411764705878,
       -19.375
      ],
      [
       199.0588235294117,
       -19.375
      ],
      [
       199.32352941176464,
       -19.375
      ],
      [
       199.32352941176464,
       -19.625
      ],
      [
       199.32352941176475,
       -19.625
      ],
      [
       199.32352941176475,
       -19.375
      ],
      [
       199.58823529411768,
       -19.375
      ],
      [
       199.8529411764706,
       -19.375
      ],
      [
       200.11764705882354,
       -19.375
      ],
      [
       200.38235294117646,
       -19.375
      ],
      [
       200.6470588235294,
       -19.375
      ],
      [
       200.6470588235294,
       -19.625
      ],
      [
       200.67746686303383,
       -19.625
      ],
      [
       200.67746686303383,
       -19.875
      ],
      [
       200.67746686303394,
       -19.875
      ],
      [
       200.67746686303394,
       -19.625
      ],
      [
       200.94256259204712,
       -19.625
      ],
      [
       200.94256259204712,
       -19.875
      ],
      [
       200.97345132743362,
       -19.875
      ],
      [
       201.2389380530974,
       -19.875
      ],
      [
       201.2389380530974,
       -20.125
      ],
      [
       201.27031019202366,
       -20.125
      ],
      [
       201.53618906942393,
       -20.125
      ],
      [
       201.53618906942393,
       -20.375
      ],
      [
       201.60000000000002,
       -20.375
      ],
      [
       201.60000000000002,
       -20.625
      ],
      [
       201.63204747774478,
       -20.625
      ],
      [
       201.63204747774478,
       -20.875
      ],
      [
       201.66419019316493,
       -20.875
      ],
      [
       201.66419019316493,
       -21.125
      ],
      [
       201.42857142857144,
       -21.125
      ],
      [
       201.42857142857144,
       -21.375
      ],
      [
       201.4605067064083,
       -21.375
      ],
      [
       201.4605067064083,
       -21.625
      ],
      [
       201.49253731343288,
       -21.625
      ],
      [
       201.49253731343288,
       -21.875
      ],
      [
       201.25560538116588,
       -21.875
      ],
      [
       201.25560538116588,
       -22.125
      ],
      [
       201.0494752623688,
       -22.125
      ],
      [
       201.0494752623688,
       -22.375
      ],
      [
       200.81081081081084,
       -22.375
      ],
      [
       200.81081081081084,
       -22.625
      ],
      [
       200.54054054054052,
       -22.625
      ],
      [
       200.27027027027032,
       -22.625
      ],
      [
       200.27027027027032,
       -22.375
      ],
      [
       200.2702702702702,
       -22.375
      ],
      [
       200.2702702702702,
       -22.625
      ],
      [
       200.03007518796994,
       -22.625
      ],
      [
       200.03007518796994,
       -22.875
      ],
      [
       199.75939849624058,
       -22.875
      ],
      [
       199.48872180451133,
       -22.875
      ],
      [
       199.48872180451133,
       -22.625
      ],
      [
       199.45945945945948,
       -22.625
      ],
      [
       199.18918918918916,
       -22.625
      ],
      [
       198.91891891891896,
       -22.625
      ],
      [
       198.64864864864865,
       -22.625
      ],
      [
       198.64864864864865,
       -22.375
      ],
      [
       198.62068965517244,
       -22.375
      ],
      [
       198.35082458770614,
       -22.375
      ],
      [
       198.35082458770614,
       -22.125
      ],
      [
       198.29596412556054,
       -22.125
      ],
      [
       198.02690582959644,
       -22.125
      ],
      [
       198.02690582959644,
       -21.875
      ]
     ],
     [
      [
       199.67503692762182,
       -20.375
      ],
      [
       199.67503692762193,
       -20.375
      ],
      [
       199.67503692762193,
       -20.125
      ],
      [
       199.67503692762182,
       -20.125
      ],
      [
       199.67503692762182,
       -20.375
      ]
     ],
     [
      [
       199.72972972972968,
       -22.625
      ],
      [
       199.7297297297298,
       -22.625
      ],
      [
       199.7297297297298,
       -22.375
      ],
      [
       199.72972972972968,
       -22.375
      ],
      [
       199.72972972972968,
       -22.625
      ]
     ],
     [
      [
       199.10313901345296,
       -22.125
      ],
      [
       199.10313901345296,
       -21.875
      ],
      [
       199.10313901345285,
       -21.875
      ],
      [
       199.10313901345285,
       -22.125
      ],
      [
       199.10313901345296,
       -22.125
      ]
     ],
     [
      [
       198.83408071748886,
       -22.125
      ],
      [
       198.83408071748886,
       -21.875
      ],
      [
       198.83408071748875,
       -21.875
      ],
      [
       198.83408071748875,
       -22.125
      ],
      [
       198.83408071748886,
       -22.125
      ]
     ],
     [
      [
       198.66666666666663,
       -20.625
      ],
      [
       198.66666666666674,
       -20.625
      ],
      [
       198.66666666666674,
       -20.375
      ],
      [
       198.66666666666663,
       -20.375
      ],
      [
       198.66666666666663,
       -20.625
      ]
     ],
     [
      [
       198.6943620178041,
       -20.625
      ],
      [
       198.6943620178041,
       -20.875
      ],
      [
       198.69436201780422,
       -20.875
      ],
      [
       198.69436201780422,
       -20.625
      ],
      [
       198.6943620178041,
       -20.625
      ]
     ],
     [
      [
       200.44843049327358,
       -22.125
      ],
      [
       200.44843049327358,
       -21.875
      ],
      [
       200.44843049327346,
       -21.875
      ],
      [
       200.44843049327346,
       -22.125
      ],
      [
       200.44843049327358,
       -22.125
      ]
     ],
     [
      [
       199.9700149925037,
       -22.125
      ],
      [
       199.9700149925037,
       -22.375
      ],
      [
       199.97001499250382,
       -22.375
      ],
      [
       199.97001499250382,
       -22.125
      ],
      [
       199.9700149925037,
       -22.125
      ]
     ],
     [
      [
       200.17937219730936,
       -22.125
      ],
      [
       200.17937219730948,
       -22.125
      ],
      [
       200.17937219730948,
       -21.875
      ],
      [
       200.17937219730936,
       -21.875
      ],
      [
       200.17937219730936,
       -22.125
      ]
     ],
     [
      [
       199.9409158050221,
       -20.375
      ],
      [
       199.9409158050222,
       -20.375
      ],
      [
       199.9409158050222,
       -20.125
      ],
      [
       199.9409158050221,
       -20.125
      ],
      [
       199.9409158050221,
       -20.375
      ]
     ],
     [
      [
       200.7796101949026,
       -22.375
      ],
      [
       200.7796101949026,
       -22.125
      ],
      [
       200.7796101949025,
       -22.125
      ],
      [
       200.7796101949025,
       -22.375
      ],
      [
       200.7796101949026,
       -22.375
      ]
     ],
     [
      [
       201.33333333333326,
       -20.375
      ],
      [
       201.33333333333326,
       -20.625
      ],
      [
       201.33333333333337,
       -20.625
      ],
      [
       201.33333333333337,
       -20.375
      ],
      [
       201.33333333333326,
       -20.375
      ]
     ]
    ]
   }
  }
 ]
}