{
 "type": "FeatureCollection",
 "name": "NGC5238_survey_footprint",
 "crs": {
  "type": "name",
  "properties": {
   "name": "ICRS"
  }
 },
 "metadata": {
  "host": "NGC5238",
  "ra": 203.6778,
  "dec": 51.6143,
  "bands": [
   "g",
   "r"
  ],
  "r_ang_deg": 1.23,
  "distance_Mpc": 4.51,
  "surveys": [
   "DECaLS"
  ]
 },
 "features": [
  {
   "type": "Feature",
   "properties": {
    "host": "NGC5238",
    "survey": "DECaLS"
   },
   "geometry": {
    "type": "Polygon",
    "coordinates": [
     [
      [
       202.45076586433265,
       50.625
      ],
      [
       202.45076586433265,
       50.875
      ],
      [
       202.1538461538462,
       50.875
      ],
      [
       202.1538461538462,
       51.125
      ],
      [
       201.90265486725662,
       51.125
      ],
      [
       201.90265486725662,
       51.375
      ],
      [
       202.0,
       51.375
      ],
      [
       202.0,
       51.625
      ],
      [
       201.744966442953,
       51.625
      ],
      [
       201.744966442953,
       51.875
      ],
      [
       201.8426966292135,
       51.875
      ],
      [
       201.8426966292135,
       52.125
      ],
      [
       202.24719101123594,
       52.125
      ],
      [
       202.34762979683978,
       52.125
      ],
      [
       202.34762979683978,
       52.375
      ],
      [
       202.5,
       52.375
      ],
      [
       202.5,
       52.625
      ],
      [
       202.90909090909088,
       52.625
      ],
      [
       202.909090909091,
       52.625
      ],
      [
       203.31818181818176,
       52.625
      ],
      [
       203.31818181818187,
       52.625
      ],
      [
       203.72727272727275,
       52.625
      ],
      [
       204.13636363636363,
       52.625
      ],
      [
       204.5454545454545,
       52.625
      ],
      [
       204.9545454545455,
       52.625
      ],
      [
       204.9545454545455,
       52.375
      ],
      [
       205.19187358916474,
       52.375
      ],
      [
       205.19187358916474,
       52.125
      ],
      [
       205.48314606741576,
       52.125
      ],
      [
       205.48314606741576,
       51.875
      ],
      [
       205.36912751677846,
       51.875
      ],
      [
       205.36912751677846,
       51.625
      ],
      [
       205.60000000000002,
       51.625
      ],
      [
       205.60000000000002,
       51.375
      ],
      [
       205.4867256637168,
       51.375
      ],
      [
       205.4867256637168,
       51.125
      ],
      [
       205.31868131868134,
       51.125
      ],
      [
       205.31868131868134,
       50.875
      ],
      [
       204.9230769230769,
       50.875
      ],
      [
       204.81400437636762,
       50.875
      ],
      [
       204.81400437636762,
       50.625
      ],
      [
       204.42013129102838,
       50.625
      ],
      [
       204.02625820568926,
       50.625
      ],
      [
       203.63238512035014,
       50.625
      ],
      [
       203.2385120350109,
       50.625
      ],
      [
       202.84463894967178,
       50.625
      ],
      [
       202.45076586433265,
       50.625
      ]
     ],
     [
      [
       204.29203539823004,
       51.375
      ],
      [
       204.29203539823004,
       51.125
      ],
      [
       204.29203539823015,
       51.125
      ],
      [
       204.29203539823015,
       51.375
      ],
      [
       204.29203539823004,
       51.375
      ]
     ],
     [
      [
       202.6516853932585,
       51.875
      ],
      [
       202.6516853932585,
       52.125
      ],
      [
       202.6516853932584,
       52.125
      ],
      [
       202.6516853932584,
       51.875
      ],
      [
       202.6516853932585,
       51.875
      ]
     ],
     [
      [
       202.30088495575228,
       51.375
      ],
      [
       202.30088495575217,
       51.375
      ],
      [
       202.30088495575217,
       51.125
      ],
      [
       202.30088495575228,
       51.125
      ],
      [
       202.30088495575228,
       51.375
      ]
     ],
     [
      [
       202.69911504424783,
       51.375
      ],
      [
       202.69911504424772,
       51.375
      ],
      [
       202.69911504424772,
       51.125
      ],
      [
       202.69911504424783,
       51.125
      ],
      [
       202.69911504424783,
       51.375
      ]
     ],
     [
      [
       204.6902654867257,
       51.375
      ],
      [
       204.6902654867256,
       51.375
      ],
      [
       204.6902654867256,
       51.125
      ],
      [
       204.6902654867257,
       51.125
      ],
      [
       204.6902654867257,
       51.375
      ]
     ],
     [
      [
       205.0786516853932,
       52.125
      ],
      [
       205.0786516853932,
       51.875
      ],
      [
       205.0786516853933,
       51.875
      ],
      [
       205.0786516853933,
       52.125
      ],
      [
       205.0786516853932,
       52.125
      ]
     ]
    ]
   }
  }
 ]
}