{
 "type": "FeatureCollection",
 "name": "UGC00685_survey_footprint",
 "crs": {
  "type": "name",
  "properties": {
   "name": "ICRS"
  }
 },
 "metadata": {
  "host": "UGC00685",
  "ra": 16.8425,
  "dec": 16.6858,
  "bands": [
   "g",
   "r"
  ],
  "r_ang_deg": 1.15,
  "distance_Mpc": 4.71,
  "surveys": [
   "DECaLS"
  ]
 },
 "features": [
  {
   "type": "Feature",
   "properties": {
    "host": "UGC00685",
    "survey": "DECaLS"
   },
   "geometry": {
    "type": "Polygon",
    "coordinates": [
     [
      [
       15.867052023121403,
       16.375
      ],
      [
       15.890014471780034,
       16.375
      ],
      [
       15.890014471780034,
       16.625
      ],
      [
       15.652173913043498,
       16.625
      ],
      [
       15.652173913043498,
       16.875
      ],
      [
       15.674891146589289,
       16.875
      ],
      [
       15.674891146589289,
       17.125
      ],
      [
       15.93613933236577,
       17.125
      ],
      [
       15.93613933236577,
       17.375
      ],
      [
       16.19738751814225,
       17.375
      ],
      [
       16.220930232558146,
       17.375
      ],
      [
       16.220930232558146,
       17.625
      ],
      [
       16.482558139534888,
       17.625
      ],
      [
       16.74418604651163,
       17.625
      ],
      [
       17.00581395348837,
       17.625
      ],
      [
       17.267441860465112,
       17.625
      ],
      [
       17.529069767441854,
       17.625
      ],
      [
       17.529069767441854,
       17.375
      ],
      [
       17.764876632801133,
       17.375
      ],
      [
       17.764876632801133,
       17.125
      ],
      [
       17.764876632801133,
       16.875
      ],
      [
       18.0,
       16.875
      ],
      [
       18.0,
       16.625
      ],
      [
       17.97395079594793,
       16.625
      ],
      [
       17.97395079594793,
       16.375
      ],
      [
       17.947976878612735,
       16.375
      ],
      [
       17.947976878612735,
       16.125
      ],
      [
       17.687861271676297,
       16.125
      ],
      [
       17.662337662337677,
       16.125
      ],
      [
       17.662337662337677,
       15.875
      ],
      [
       17.402597402597394,
       15.875
      ],
      [
       17.37752161383287,
       15.875
      ],
      [
       17.37752161383287,
       15.625
      ],
      [
       17.118155619596564,
       15.625
      ],
      [
       16.85878962536026,
       15.625
      ],
      [
       16.599423631123898,
       15.625
      ],
      [
       16.340057636887593,
       15.625
      ],
      [
       16.340057636887593,
       15.875
      ],
      [
       16.10389610389609,
       15.875
      ],
      [
       16.10389610389609,
       16.125
      ],
      [
       15.867052023121403,
       16.125
      ],
      [
       15.867052023121403,
       16.375
      ]
     ]
    ]
   }
  }
 ]
}