{
 "type": "FeatureCollection",
 "name": "UGC05427_survey_footprint",
 "crs": {
  "type": "name",
  "properties": {
   "name": "ICRS"
  }
 },
 "metadata": {
  "host": "UGC05427",
  "ra": 151.1703,
  "dec": 29.365,
  "bands": [
   "g",
   "r"
  ],
  "r_ang_deg": 0.69,
  "distance_Mpc": 7.69,
  "surveys": [
   "DECaLS"
  ]
 },
 "features": [
  {
   "type": "Feature",
   "properties": {
    "host": "UGC05427",
    "survey": "DECaLS"
   },
   "geometry": {
    "type": "Polygon",
    "coordinates": [
     [
      [
       150.94936708860757,
       28.625
      ],
      [
       150.66455696202536,
       28.625
      ],
      [
       150.66455696202536,
       28.875
      ],
      [
       150.6180665610143,
       28.875
      ],
      [
       150.6180665610143,
       29.125
      ],
      [
       150.61806656101425,
       29.125
      ],
      [
       150.61806656101425,
       28.875
      ],
      [
       150.33280507131536,
       28.875
      ],
      [
       150.33280507131536,
       29.125
      ],
      [
       150.23847376788558,
       29.125
      ],
      [
       150.23847376788558,
       29.375
      ],
      [
       150.47770700636943,
       29.375
      ],
      [
       150.47770700636943,
       29.625
      ],
      [
       150.3833865814696,
       29.625
      ],
      [
       150.3833865814696,
       29.875
      ],
      [
       150.62400000000002,
       29.875
      ],
      [
       150.62400000000002,
       30.125
      ],
      [
       150.91200000000003,
       30.125
      ],
      [
       151.2,
       30.125
      ],
      [
       151.20000000000005,
       30.125
      ],
      [
       151.488,
       30.125
      ],
      [
       151.776,
       30.125
      ],
      [
       151.776,
       29.875
      ],
      [
       151.82108626198084,
       29.875
      ],
      [
       151.82108626198084,
       29.625
      ],
      [
       151.9108280254777,
       29.625
      ],
      [
       151.9108280254777,
       29.375
      ],
      [
       151.95548489666135,
       29.375
      ],
      [
       151.95548489666135,
       29.125
      ],
      [
       152.04437400950872,
       29.125
      ],
      [
       152.04437400950872,
       28.875
      ],
      [
       151.80379746835445,
       28.875
      ],
      [
       151.80379746835445,
       28.625
      ],
      [
       151.51898734177212,
       28.625
      ],
      [
       151.2341772151899,
       28.625
      ],
      [
       150.94936708860757,
       28.625
      ]
     ],
     [
      [
       150.76433121019113,
       29.625
      ],
      [
       150.76433121019107,
       29.625
      ],
      [
       150.76433121019107,
       29.375
      ],
      [
       150.76433121019113,
       29.375
      ],
      [
       150.76433121019113,
       29.625
      ]
     ],
     [
      [
       150.6709265175719,
       29.875
      ],
      [
       150.67092651757184,
       29.875
      ],
      [
       150.67092651757184,
       29.625
      ],
      [
       150.6709265175719,
       29.625
      ],
      [
       150.6709265175719,
       29.875
      ]
     ],
     [
      [
       151.62420382165607,
       29.625
      ],
      [
       151.624203821656,
       29.625
      ],
      [
       151.624203821656,
       29.375
      ],
      [
       151.62420382165607,
       29.375
      ],
      [
       151.62420382165607,
       29.625
      ]
     ]
    ]
   }
  }
 ]
}