{
 "type": "FeatureCollection",
 "name": "UGC04115_survey_footprint",
 "crs": {
  "type": "name",
  "properties": {
   "name": "ICRS"
  }
 },
 "metadata": {
  "host": "UGC04115",
  "ra": 119.2579,
  "dec": 14.3907,
  "bands": [
   "g",
   "r"
  ],
  "r_ang_deg": 0.68,
  "distance_Mpc": 7.87,
  "surveys": [
   "DECaLS"
  ]
 },
 "features": [
  {
   "type": "Feature",
   "properties": {
    "host": "UGC04115",
    "survey": "DECaLS"
   },
   "geometry": {
    "type": "Polygon",
    "coordinates": [
     [
      [
       119.05714285714288,
       13.625
      ],
      [
       119.05714285714282,
       13.625
      ],
      [
       118.80000000000001,
       13.625
      ],
      [
       118.80000000000001,
       13.875
      ],
      [
       118.71244635193136,
       13.875
      ],
      [
       118.45493562231763,
       13.875
      ],
      [
       118.45493562231763,
       14.125
      ],
      [
       118.45493562231763,
       14.375
      ],
      [
       118.62464183381087,
       14.375
      ],
      [
       118.62464183381087,
       14.625
      ],
      [
       118.53658536585368,
       14.625
      ],
      [
       118.53658536585368,
       14.875
      ],
      [
       118.70689655172413,
       14.875
      ],
      [
       118.70689655172413,
       15.125
      ],
      [
       118.9655172413793,
       15.125
      ],
      [
       119.22413793103448,
       15.125
      ],
      [
       119.48275862068965,
       15.125
      ],
      [
       119.74137931034483,
       15.125
      ],
      [
       119.74137931034483,
       14.875
      ],
      [
       119.82783357245336,
       14.875
      ],
      [
       120.08608321377329,
       14.875
      ],
      [
       120.08608321377329,
       14.625
      ],
      [
       119.91404011461316,
       14.625
      ],
      [
       119.91404011461316,
       14.375
      ],
      [
       120.0,
       14.375
      ],
      [
       120.0,
       14.125
      ],
      [
       120.0,
       13.875
      ],
      [
       119.82857142857142,
       13.875
      ],
      [
       119.82857142857142,
       13.625
      ],
      [
       119.57142857142856,
       13.625
      ],
      [
       119.31428571428569,
       13.625
      ],
      [
       119.05714285714288,
       13.625
      ]
     ]
    ]
   }
  }
 ]
}