{
 "type": "FeatureCollection",
 "name": "UGC05456_survey_footprint",
 "crs": {
  "type": "name",
  "properties": {
   "name": "ICRS"
  }
 },
 "metadata": {
  "host": "UGC05456",
  "ra": 151.8305,
  "dec": 10.3645,
  "bands": [
   "g",
   "r"
  ],
  "r_ang_deg": 0.63,
  "distance_Mpc": 10.52,
  "surveys": [
   "DECaLS"
  ]
 },
 "features": [
  {
   "type": "Feature",
   "properties": {
    "host": "UGC05456",
    "survey": "DECaLS"
   },
   "geometry": {
    "type": "Polygon",
    "coordinates": [
     [
      [
       151.35211267605632,
       9.625
      ],
      [
       151.35211267605632,
       9.875
      ],
      [
       151.09859154929575,
       9.875
      ],
      [
       151.09859154929575,
       10.125
      ],
      [
       151.0578279266573,
       10.125
      ],
      [
       151.0578279266573,
       10.375
      ],
      [
       151.0578279266573,
       10.625
      ],
      [
       151.01694915254234,
       10.625
      ],
      [
       151.01694915254234,
       10.875
      ],
      [
       151.27118644067798,
       10.875
      ],
      [
       151.27118644067798,
       11.125
      ],
      [
       151.52542372881356,
       11.125
      ],
      [
       151.77966101694915,
       11.125
      ],
      [
       152.03389830508468,
       11.125
      ],
      [
       152.03389830508468,
       10.875
      ],
      [
       152.03389830508468,
       10.625
      ],
      [
       152.0338983050848,
       10.625
      ],
      [
       152.0338983050848,
       10.875
      ],
      [
       152.0338983050848,
       11.125
      ],
      [
       152.28813559322032,
       11.125
      ],
      [
       152.28813559322032,
       10.875
      ],
      [
       152.54237288135596,
       10.875
      ],
      [
       152.54237288135596,
       10.625
      ],
      [
       152.58110014104375,
       10.625
      ],
      [
       152.58110014104375,
       10.375
      ],
      [
       152.58110014104375,
       10.125
      ],
      [
       152.6197183098592,
       10.125
      ],
      [
       152.6197183098592,
       9.875
      ],
      [
       152.36619718309862,
       9.875
      ],
      [
       152.36619718309862,
       9.625
      ],
      [
       152.11267605633805,
       9.625
      ],
      [
       151.85915492957747,
       9.625
      ],
      [
       151.6056338028169,
       9.625
      ],
      [
       151.35211267605632,
       9.625
      ]
     ]
    ]
   }
  }
 ]
}