{
 "type": "FeatureCollection",
 "name": "UGC05423_survey_footprint",
 "crs": {
  "type": "name",
  "properties": {
   "name": "ICRS"
  }
 },
 "metadata": {
  "host": "UGC05423",
  "ra": 151.3781,
  "dec": 70.3652,
  "bands": [
   "g",
   "r"
  ],
  "r_ang_deg": 0.68,
  "distance_Mpc": 8.87,
  "surveys": [
   "DECaLS"
  ]
 },
 "features": [
  {
   "type": "Feature",
   "properties": {
    "host": "UGC05423",
    "survey": "DECaLS"
   },
   "geometry": {
    "type": "Polygon",
    "coordinates": [
     [
      [
       149.1428571428571,
       70.125
      ],
      [
       149.1428571428571,
       70.375
      ],
      [
       149.50413223140492,
       70.375
      ],
      [
       149.50413223140492,
       70.625
      ],
      [
       149.12133891213387,
       70.625
      ],
      [
       149.12133891213387,
       70.875
      ],
      [
       149.87447698744768,
       70.875
      ],
      [
       150.25423728813564,
       70.875
      ],
      [
       150.25423728813564,
       71.125
      ],
      [
       151.01694915254234,
       71.125
      ],
      [
       151.01694915254234,
       70.875
      ],
      [
       151.0169491525424,
       70.875
      ],
      [
       151.0169491525424,
       71.125
      ],
      [
       151.77966101694915,
       71.125
      ],
      [
       152.54237288135596,
       71.125
      ],
      [
       152.54237288135596,
       70.875
      ],
      [
       152.88702928870293,
       70.875
      ],
      [
       153.64016736401675,
       70.875
      ],
      [
       153.64016736401675,
       70.625
      ],
      [
       153.2231404958677,
       70.625
      ],
      [
       153.2231404958677,
       70.375
      ],
      [
       153.55102040816325,
       70.375
      ],
      [
       153.55102040816325,
       70.125
      ],
      [
       153.14516129032256,
       70.125
      ],
      [
       153.14516129032256,
       69.875
      ],
      [
       152.74900398406373,
       69.875
      ],
      [
       152.74900398406373,
       69.625
      ],
      [
       152.03187250996018,
       69.625
      ],
      [
       151.31474103585663,
       69.625
      ],
      [
       151.31474103585657,
       69.625
      ],
      [
       150.59760956175296,
       69.625
      ],
      [
       149.8804780876494,
       69.625
      ],
      [
       149.8804780876494,
       69.875
      ],
      [
       149.51612903225805,
       69.875
      ],
      [
       149.51612903225805,
       70.125
      ],
      [
       149.1428571428571,
       70.125
      ]
     ],
     [
      [
       150.9917355371901,
       70.625
      ],
      [
       150.99173553719004,
       70.625
      ],
      [
       150.99173553719004,
       70.375
      ],
      [
       150.9917355371901,
       70.375
      ],
      [
       150.9917355371901,
       70.625
      ]
     ]
    ]
   }
  }
 ]
}